address,address_uf,address_uf_nb,label,category,subcategory,organization,image,source,description,comment,tags,submittedBy,submissionTimestamp,github_hash
0:9809FF54D6E624E09797D02CB8EBD5F8A7E9F678B74FC040522A1FE4BA6C4F29,EQCYCf9U1uYk4JeX0Cy469X4p-n2eLdPwEBSKh_kumxPKRTL,UQCYCf9U1uYk4JeX0Cy469X4p-n2eLdPwEBSKh_kumxPKUkO,adsgram,ads,,adsgram,,,Web Ads in Telegram Miniapps,Incoming Payments,[],ohld,2025-01-01T00:00:01Z,d54f3df85af38309a650d436dbc53fefd19169b0
0:A62E05EF1701ABB5DA61F4AB028059BA96F33447696E893CE974152ACDF2C523,EQCmLgXvFwGrtdph9KsCgFm6lvM0R2luiTzpdBUqzfLFI2R_,UQCmLgXvFwGrtdph9KsCgFm6lvM0R2luiTzpdBUqzfLFIzm6,adsgram,ads,,adsgram,,,Web Ads in Telegram Miniapps,Payouts,[],ohld,2025-01-01T00:00:01Z,d54f3df85af38309a650d436dbc53fefd19169b0
0:545241CF3568290BA78DA97AF18F9AFF82B31238984C17386D1D90AA51390EA8,EQBUUkHPNWgpC6eNqXrxj5r_grMSOJhMFzhtHZCqUTkOqPkz,UQBUUkHPNWgpC6eNqXrxj5r_grMSOJhMFzhtHZCqUTkOqKT2,Major,gaming,,Major,,,,,[],ohld,2025-01-01T00:00:01Z,d54f3df85af38309a650d436dbc53fefd19169b0
0:9C67B72B1FB7C4210DB1A8BA6059F8D8C4CCE6FF2055EBAABEF2731559604492,EQCcZ7crH7fEIQ2xqLpgWfjYxMzm_yBV66q-8nMVWWBEkn5m,UQCcZ7crH7fEIQ2xqLpgWfjYxMzm_yBV66q-8nMVWWBEkiOj,BBQ Coin,gaming,,BBQ Coin,,,,aka tBTC,[],ohld,2025-01-01T00:00:01Z,d54f3df85af38309a650d436dbc53fefd19169b0
0:E622EE7BEDADEF81B60C8D51C02F877085F3C69FF7175719421DFF80DAC0A167,EQDmIu577a3vgbYMjVHAL4dwhfPGn_cXVxlCHf-A2sChZzE5,UQDmIu577a3vgbYMjVHAL4dwhfPGn_cXVxlCHf-A2sChZ2z8,Pluto Studio,gaming,,Pluto Studio,,,,Collecting Telegram Stars payments,[],ohld,2025-01-01T00:00:01Z,d54f3df85af38309a650d436dbc53fefd19169b0
0:2B1D7AB265CFA81BA5CE5E51F7380D999270FC3BCB6F929F13DA36AEF25DD96F,EQArHXqyZc-oG6XOXlH3OA2ZknD8O8tvkp8T2jau8l3Zb3_o,UQArHXqyZc-oG6XOXlH3OA2ZknD8O8tvkp8T2jau8l3ZbyIt,Pluto Studio,gaming,,Pluto Studio,,,,Collecting Telegram Stars payments,[],ohld,2025-01-01T00:00:01Z,d54f3df85af38309a650d436dbc53fefd19169b0
0:91D4EFF7D3F2FA5C89A044578C242BA82A8F200FE27728BC7829A98F936A3CDC,EQCR1O_30_L6XImgRFeMJCuoKo8gD-J3KLx4KamPk2o83ECw,UQCR1O_30_L6XImgRFeMJCuoKo8gD-J3KLx4KamPk2o83B11,Wonton,gaming,,Wonton,,,,,[],ohld,2025-01-01T00:00:01Z,d54f3df85af38309a650d436dbc53fefd19169b0
0:CFC2ADD4787AE5E3F0A0706FF41633AA174F37720751349F505BD2E39C82CBCC,EQDPwq3UeHrl4_CgcG_0FjOqF083cgdRNJ9QW9LjnILLzPAk,UQDPwq3UeHrl4_CgcG_0FjOqF083cgdRNJ9QW9LjnILLzK3h,Zoo Story,gaming,,Zoo Story,,,,,[],ohld,2025-01-01T00:00:01Z,d54f3df85af38309a650d436dbc53fefd19169b0
0:300587E23E6A3AF971403D101B0CDF046EAD2F42BB64074276DFE35B4FECC9C9,EQAwBYfiPmo6-XFAPRAbDN8Ebq0vQrtkB0J23-NbT-zJyeQ7,UQAwBYfiPmo6-XFAPRAbDN8Ebq0vQrtkB0J23-NbT-zJybn-,KAT Knight,gaming,,KAT Knight,,,,,[],ohld,2025-01-01T00:00:01Z,d54f3df85af38309a650d436dbc53fefd19169b0
0:C1A353251CAE316166AE8D59B9B8232CE9CE812FDE6B9D5BBFBA10370FBA1359,EQDBo1MlHK4xYWaujVm5uCMs6c6BL95rnVu_uhA3D7oTWeP-,UQDBo1MlHK4xYWaujVm5uCMs6c6BL95rnVu_uhA3D7oTWb47,Miomi Game,gaming,,Miomi Game,,,,,[],ohld,2025-01-01T00:00:01Z,d54f3df85af38309a650d436dbc53fefd19169b0
0:C4122B8CBCC4298184C69EF2B2878E0C7F8178E78FB8222AC8F25B7434CA1AF7,EQDEEiuMvMQpgYTGnvKyh44Mf4F454-4IirI8lt0NMoa959B,UQDEEiuMvMQpgYTGnvKyh44Mf4F454-4IirI8lt0NMoa98KE,Miomi Game,gaming,,Miomi Game,,,,,[],ohld,2025-01-01T00:00:01Z,d54f3df85af38309a650d436dbc53fefd19169b0
0:109DBD98E33899199691F661A83A0B8CD030EB128CADB62AB0B35CA37A702441,EQAQnb2Y4ziZGZaR9mGoOguM0DDrEoyttiqws1yjenAkQYK7,UQAQnb2Y4ziZGZaR9mGoOguM0DDrEoyttiqws1yjenAkQd9-,Boinkers,gaming,,Boinkers,,,,,[],ohld,2025-01-01T00:00:01Z,d54f3df85af38309a650d436dbc53fefd19169b0
0:E2B3F554CB0759EF77DAC94A8B9D1A8176645CBA09846741C7F67E15F4F4FA2E,EQDis_VUywdZ73fayUqLnRqBdmRcugmEZ0HH9n4V9PT6Lm9i,UQDis_VUywdZ73fayUqLnRqBdmRcugmEZ0HH9n4V9PT6LjKn,X Empire,gaming,,X Empire,,,,,[],ohld,2025-01-01T00:00:01Z,d54f3df85af38309a650d436dbc53fefd19169b0
0:316265466B4853B41630D23F574A978E866FFDDD8F8B8530A3612E9647A5663E,EQAxYmVGa0hTtBYw0j9XSpeOhm_93Y-LhTCjYS6WR6VmPhUp,UQAxYmVGa0hTtBYw0j9XSpeOhm_93Y-LhTCjYS6WR6VmPkjs,TonTradingBot,tradingbot,Referral Address,TonTradingBot,,,Ton.Fun referral address,,[],ohld,2025-01-01T00:00:01Z,d54f3df85af38309a650d436dbc53fefd19169b0
0:AF225E96F22539C6445490C7D85EDE89CA02ECD8C65FF0546F7B97BC69382E2E,EQCvIl6W8iU5xkRUkMfYXt6JygLs2MZf8FRve5e8aTguLgeT,UQCvIl6W8iU5xkRUkMfYXt6JygLs2MZf8FRve5e8aTguLlpW,TonTradingBot,tradingbot,,TonTradingBot,,,Claim,tontradingbotclaim.ton,[],ohld,2025-01-01T00:00:01Z,d54f3df85af38309a650d436dbc53fefd19169b0
0:3899FAD5E3938422E4F224A0D07B8D455F55F45C3F083C9F5461BED3A6EDE02B,EQA4mfrV45OEIuTyJKDQe41FX1X0XD8IPJ9UYb7Tpu3gK_TL,UQA4mfrV45OEIuTyJKDQe41FX1X0XD8IPJ9UYb7Tpu3gK6kO,TonTradingBot,tradingbot,,TonTradingBot,,,Fee Collection,tontradingbotsellfee.ton,['fee-collector'],ohld,2025-01-01T00:00:01Z,d54f3df85af38309a650d436dbc53fefd19169b0
0:FAC33F54A4F627F3E3B75E260730DF79AA54FD6B1686BF1826057710FAB916A9,EQD6wz9UpPYn8-O3XiYHMN95qlT9axaGvxgmBXcQ-rkWqbwE,UQD6wz9UpPYn8-O3XiYHMN95qlT9axaGvxgmBXcQ-rkWqeHB,TonTradingBot,tradingbot,,TonTradingBot,,,Fee Collection,tontradingbotbuyfee.ton,['fee-collector'],ohld,2025-01-01T00:00:01Z,d54f3df85af38309a650d436dbc53fefd19169b0
0:93C1B918FA90EAC774C9BBEFF0E49742B4BFAC15D49E289A43351782C59A650C,EQCTwbkY-pDqx3TJu-_w5JdCtL-sFdSeKJpDNReCxZplDGWx,UQCTwbkY-pDqx3TJu-_w5JdCtL-sFdSeKJpDNReCxZplDDh0,dtrade,tradingbot,,dtrade,,,Fee Collection,,[],ohld,2025-01-01T00:00:01Z,d54f3df85af38309a650d436dbc53fefd19169b0
0:067E020EC5A115B3F6753567C668BD5D7FBB0EDC3326EB433A68ECAF8ED99128,EQAGfgIOxaEVs_Z1NWfGaL1df7sO3DMm60M6aOyvjtmRKHs_,UQAGfgIOxaEVs_Z1NWfGaL1df7sO3DMm60M6aOyvjtmRKCb6,dtrade,tradingbot,Referral Address,dtrade,,,Ton.Fun referral address,,[],ohld,2025-01-01T00:00:01Z,d54f3df85af38309a650d436dbc53fefd19169b0
0:2363D23750A06AC544CCD6C0786122A9A88D2445A80D28E04230525F905C3280,EQAjY9I3UKBqxUTM1sB4YSKpqI0kRagNKOBCMFJfkFwygC2N,UQAjY9I3UKBqxUTM1sB4YSKpqI0kRagNKOBCMFJfkFwygHBI,Scammer,scammer,,Scammer,,tonkeeper ton-assets,Scammer,,"['scammer', 'suspicious']",ziga,2024-11-22T00:00:00Z,d54f3df85af38309a650d436dbc53fefd19169b0
0:5778BD2D0F14A7F687EAAE77D24490D4738191D498F5DEB1BC0DD132CE23A4EE,EQBXeL0tDxSn9ofqrnfSRJDUc4GR1Jj13rG8DdEyziOk7sxi,UQBXeL0tDxSn9ofqrnfSRJDUc4GR1Jj13rG8DdEyziOk7pGn,Scammer,scammer,,Scammer,,,,mimic for legit CEX addresses with first and last symbols of their address,"['scammer', 'suspicious']",ohld,2025-01-01T00:00:00Z,d54f3df85af38309a650d436dbc53fefd19169b0
0:C3AC4BC505B644CFB4E0FDA41F238944F5D4F2A9B63E05068C4A105F4E48DC7C,EQDDrEvFBbZEz7Tg_aQfI4lE9dTyqbY-BQaMShBfTkjcfPQb,UQDDrEvFBbZEz7Tg_aQfI4lE9dTyqbY-BQaMShBfTkjcfKne,Scammer,scammer,,Scammer,,,,mimic for legit CEX addresses with first and last symbols of their address,"['scammer', 'suspicious']",ohld,2025-01-01T00:00:00Z,d54f3df85af38309a650d436dbc53fefd19169b0
0:F91340D62803F785A497AF4EF5EFBD61C856DD09CB12A3D2B3E74BF47A44325A,EQD5E0DWKAP3haSXr071771hyFbdCcsSo9Kz50v0ekQyWnOZ,UQD5E0DWKAP3haSXr071771hyFbdCcsSo9Kz50v0ekQyWi5c,Scammer,scammer,,Scammer,,,,mimic for legit CEX addresses with first and last symbols of their address,"['scammer', 'suspicious']",ohld,2025-01-01T00:00:00Z,d54f3df85af38309a650d436dbc53fefd19169b0
0:91D73056E035232F09AAF8242A1D51EEA98B6A5BEBBF8AC0C9E521D02A1A4BDB,EQCR1zBW4DUjLwmq-CQqHVHuqYtqW-u_isDJ5SHQKhpL2wQV,UQCR1zBW4DUjLwmq-CQqHVHuqYtqW-u_isDJ5SHQKhpL21nQ,Morgenshtern,celebrity,,Morgenshtern,https://ton.ams3.digitaloceanspaces.com/tonapi-misc/logos/morgenshtern_288.png,tonkeeper ton-assets,Russian Celebrity,,[],ziga,2024-11-22T00:00:00Z,d54f3df85af38309a650d436dbc53fefd19169b0
-1:DD24C4A1F2B88F8B7053513B5CC6C5A31BC44B2A72DCB4D8C0338AF0F0D37EC5,Ef_dJMSh8riPi3BTUTtcxsWjG8RLKnLctNjAM4rw8NN-xWdr,Uf_dJMSh8riPi3BTUTtcxsWjG8RLKnLctNjAM4rw8NN-xTqu,bridge.ton.org,bridge,,TON,,tonviewer,,ETH Bridge,[],ohld,2024-12-26T10:09:26Z,d54f3df85af38309a650d436dbc53fefd19169b0
-1:4D5C0210B35DADDAA219FAC459DBA0FDEFB1FAE4E97A0D0797739FE050D694CA,Ef9NXAIQs12t2qIZ-sRZ26D977H65Ol6DQeXc5_gUNaUys5r,Uf9NXAIQs12t2qIZ-sRZ26D977H65Ol6DQeXc5_gUNaUypOu,bridge.ton.org,bridge,,TON,,tonviewer,,BSC Bridge,[],ohld,2024-12-26T10:09:26Z,d54f3df85af38309a650d436dbc53fefd19169b0
0:E9507855979949E98E3B0C27744D675707F91DF94F8DE8AC8010B78F3637E3D7,EQDpUHhVl5lJ6Y47DCd0TWdXB_kd-U-N6KyAELePNjfj15HT,UQDpUHhVl5lJ6Y47DCd0TWdXB_kd-U-N6KyAELePNjfj18wW,Symbiosis,bridge,,Symbiosis,,,,,[],ohld,2024-12-26T10:09:26Z,d54f3df85af38309a650d436dbc53fefd19169b0
0:2F8AB9C9DED5B286353402DE2A46BF8C8A98776C8FF7F2F829D21EF74874E5DD,EQAvirnJ3tWyhjU0At4qRr-Miph3bI_38vgp0h73SHTl3W0E,UQAvirnJ3tWyhjU0At4qRr-Miph3bI_38vgp0h73SHTl3TDB,Layerswap,bridge,,Layerswap,,,,,[],ohld,2024-12-26T10:09:26Z,d54f3df85af38309a650d436dbc53fefd19169b0
0:2C711F3E9FBE7D9E0C5550E98F0CECEE7BB09F06DFF122BF9B8BB91EC7FC9DE4,EQAscR8-n759ngxVUOmPDOzue7CfBt_xIr-bi7kex_yd5Hnu,UQAscR8-n759ngxVUOmPDOzue7CfBt_xIr-bi7kex_yd5CQr,sportsbet.io,merchant,,sportsbet.io,,datalake-test.cex_labels_20241116,,,[],ziga,2024-12-12T10:09:26Z,d54f3df85af38309a650d436dbc53fefd19169b0
0:CE3CDCF95089B75EE5CE9824A4FF506F40B75090C4BE96637C2B8D38B1097224,EQDOPNz5UIm3XuXOmCSk_1BvQLdQkMS-lmN8K404sQlyJPrd,UQDOPNz5UIm3XuXOmCSk_1BvQLdQkMS-lmN8K404sQlyJKcY,mobile,merchant,,mobile,,datalake-test.cex_labels_20241116,,,[],ziga,2024-12-12T10:09:26Z,d54f3df85af38309a650d436dbc53fefd19169b0
0:E6F3D8824F46B1EFBAB9AFC684793428C55FED69B46A15A49BE69A29BC49E530,EQDm89iCT0ax77q5r8aEeTQoxV_tabRqFaSb5popvEnlMLNb,UQDm89iCT0ax77q5r8aEeTQoxV_tabRqFaSb5popvEnlMO6e,fragment,merchant,,fragment,,,Sends Telegram channel and bot rewards,converting Stars to TON,"['telegram-stars', 'telegram-premium', 'telegram-ads', 'kyc']",ohld,2025-01-01T00:00:01Z,d54f3df85af38309a650d436dbc53fefd19169b0
0:5E69BEC3DFC448C32A5E81B37B619810CF00DB6FC41F30CC18F28B89737A8F97,EQBeab7D38RIwypegbN7YZgQzwDbb8QfMMwY8ouJc3qPl91M,UQBeab7D38RIwypegbN7YZgQzwDbb8QfMMwY8ouJc3qPl4CJ,fragment,merchant,,fragment,,,Telegram Ad account top ups,,"['telegram-stars', 'telegram-premium', 'telegram-ads', 'kyc']",ohld,2025-01-01T00:00:01Z,d54f3df85af38309a650d436dbc53fefd19169b0
0:852443F8599FE6A5DA34FE43049AC4E0BEB3071BB2BFB56635EA9421287C283A,EQCFJEP4WZ_mpdo0_kMEmsTgvrMHG7K_tWY16pQhKHwoOoy2,UQCFJEP4WZ_mpdo0_kMEmsTgvrMHG7K_tWY16pQhKHwoOtFz,fragment,merchant,,fragment,,,Telegram Stars Seller,,"['telegram-stars', 'telegram-premium', 'telegram-ads', 'kyc']",ohld,2025-01-01T00:00:01Z,d54f3df85af38309a650d436dbc53fefd19169b0
0:408DA3B28B6C065A593E10391269BAAA9C5F8CAEBC0C69D9F0AABBAB2A99256B,EQBAjaOyi2wGWlk-EDkSabqqnF-MrrwMadnwqrurKpkla9nE,UQBAjaOyi2wGWlk-EDkSabqqnF-MrrwMadnwqrurKpkla4QB,fragment,merchant,,fragment,,,,,"['telegram-stars', 'telegram-premium', 'telegram-ads', 'kyc']",ohld,2025-01-01T00:00:01Z,d54f3df85af38309a650d436dbc53fefd19169b0
0:43512860D54980CF24D59868A30E679927FB1373C10964DB7500EDCDF690ABC4,EQBDUShg1UmAzyTVmGijDmeZJ_sTc8EJZNt1AO3N9pCrxPAN,UQBDUShg1UmAzyTVmGijDmeZJ_sTc8EJZNt1AO3N9pCrxK3I,fragment,merchant,,fragment,,,Sends Telegram channel and bot rewards,,"['telegram-stars', 'telegram-premium', 'telegram-ads', 'kyc']",ohld,2025-01-01T00:00:01Z,d54f3df85af38309a650d436dbc53fefd19169b0
0:A3935861F79DAF59A13D6D182E1640210C02F98E3DF18FDA74B8F5AB141ABF18,EQCjk1hh952vWaE9bRguFkAhDAL5jj3xj9p0uPWrFBq_GEMS,UQCjk1hh952vWaE9bRguFkAhDAL5jj3xj9p0uPWrFBq_GB7X,Getgems Marketplace,merchant,,Getgems,,tonkeeper ton-assets,TON NFT Marketplace,,[],ziga,2024-11-22T00:00:00Z,d54f3df85af38309a650d436dbc53fefd19169b0
0:0816E9C02D110E790F7DB3231B3BAB12CCCFC56B546C3C3E530684B4A9578A43,EQAIFunALREOeQ99syMbO6sSzM_Fa1RsPD5TBoS0qVeKQ-AR,UQAIFunALREOeQ99syMbO6sSzM_Fa1RsPD5TBoS0qVeKQ73U,Getgems Marketplace,merchant,,Getgems,,,TON NFT Marketplace,contract to put NFT for sale,[],ohld,2025-01-09T00:00:00Z,d54f3df85af38309a650d436dbc53fefd19169b0
0:584EE61B2DFF0837116D0FCB5078D93964BCBE9C05FD6A141B1BFCA5D6A43E18,EQBYTuYbLf8INxFtD8tQeNk5ZLy-nAX9ahQbG_yl1qQ-GEMS,UQBYTuYbLf8INxFtD8tQeNk5ZLy-nAX9ahQbG_yl1qQ-GB7X,Getgems Marketplace,merchant,,Getgems,,tonviewer,TON NFT Marketplace,sales contract,[],ohld,2025-01-09T00:00:00Z,d54f3df85af38309a650d436dbc53fefd19169b0
0:3E07C6DC0C47A0470A7F708AEB5AB1631F108649C9FAF61ED758F824A1719222,EQA-B8bcDEegRwp_cIrrWrFjHxCGScn69h7XWPgkoXGSIj3Q,UQA-B8bcDEegRwp_cIrrWrFjHxCGScn69h7XWPgkoXGSImAV,bc.game,merchant,,bc.game,,datalake-test.cex_labels_20241116,,,[],ziga,2024-12-12T10:09:26Z,d54f3df85af38309a650d436dbc53fefd19169b0
0:DBE32B2C5290FC32BBDE5CCBC0BB7AF44B9DF670637D41979F51B5543D38C513,EQDb4yssUpD8MrveXMvAu3r0S532cGN9QZefUbVUPTjFE6rr,UQDb4yssUpD8MrveXMvAu3r0S532cGN9QZefUbVUPTjFE_cu,split.tg,merchant,,split.tg,,,,,"['telegram-stars', 'telegram-premium', 'no-kyc']",ohld,2025-01-01T00:00:01Z,d54f3df85af38309a650d436dbc53fefd19169b0
0:E3C0C7ADB32E1E0C4F7C8689823FC5401172237F2F18C8BC2898B5C42EC86FB5,EQDjwMetsy4eDE98homCP8VAEXIjfy8YyLwomLXELshvteew,UQDjwMetsy4eDE98homCP8VAEXIjfy8YyLwomLXELshvtbp1,split.tg,merchant,,split.tg,,,split.tg fee collection wallet,,"['telegram-stars', 'telegram-premium', 'no-kyc', 'fee-collector']",ohld,2025-01-01T00:00:01Z,d54f3df85af38309a650d436dbc53fefd19169b0
0:BCAD466A47FA565750729565253CD073CA24D856804499090C2100D95C809F9E,EQC8rUZqR_pWV1BylWUlPNBzyiTYVoBEmQkMIQDZXICfnuRr,UQC8rUZqR_pWV1BylWUlPNBzyiTYVoBEmQkMIQDZXICfnrmu,evaa,lending,,evaa,,,Evaa Master Mainnet,,['defi'],ohld,2025-01-01T00:00:01Z,d54f3df85af38309a650d436dbc53fefd19169b0
0:489595F65115A45C24A0DD0176309654FB00B95E40682F0C3E85D5A4D86DFB25,EQBIlZX2URWkXCSg3QF2MJZU-wC5XkBoLww-hdWk2G37Jc6N,UQBIlZX2URWkXCSg3QF2MJZU-wC5XkBoLww-hdWk2G37JZNI,evaa,lending,,evaa,,,Evaa LP Mainnet,,['defi'],ohld,2025-01-01T00:00:01Z,d54f3df85af38309a650d436dbc53fefd19169b0
0:0D511552DDF8413BD6E2BE2837E22C89422F7B16131BA62BE8D5A504012D8661,EQANURVS3fhBO9bivig34iyJQi97FhMbpivo1aUEAS2GYSu-,UQANURVS3fhBO9bivig34iyJQi97FhMbpivo1aUEAS2GYXZ7,evaa,lending,,evaa,,,Evaa LP Mainnet,,['defi'],ohld,2025-01-01T00:00:01Z,d54f3df85af38309a650d436dbc53fefd19169b0
0:9FDE2850EC933AAB0E1562CF9BA472DD6FC030109E558E4FC62821E086BC961F,EQCf3ihQ7JM6qw4VYs-bpHLdb8AwEJ5Vjk_GKCHghryWH2zb,UQCf3ihQ7JM6qw4VYs-bpHLdb8AwEJ5Vjk_GKCHghryWHzEe,tonfun,DEX,launchpad,tonfun,,,Fee Collection,,"['defi', 'fee-collector']",ohld,2025-01-01T00:00:01Z,d54f3df85af38309a650d436dbc53fefd19169b0
0:3DDBD4759309D89CA5E5D3B5CFF3071C70C2F49CD27EA96D01B5F0094264AE95,EQA929R1kwnYnKXl07XP8wcccML0nNJ-qW0BtfAJQmSulein,UQA929R1kwnYnKXl07XP8wcccML0nNJ-qW0BtfAJQmSulbVi,bigpump,DEX,launchpad,bigpump,,,Ton.Fun referral address,,"['defi', 'referral-address']",ohld,2025-01-01T00:00:01Z,d54f3df85af38309a650d436dbc53fefd19169b0
0:71AE4A9BF6C55518156A349CC95BD94370AC2186079A9A404936DD678E0A3FB5,EQBxrkqb9sVVGBVqNJzJW9lDcKwhhgeamkBJNt1njgo_tU7s,UQBxrkqb9sVVGBVqNJzJW9lDcKwhhgeamkBJNt1njgo_tRMp,hot,DEX,launchpad,hot,,,Ton.Fun referral address,,"['defi', 'referral-address']",ohld,2025-01-01T00:00:01Z,d54f3df85af38309a650d436dbc53fefd19169b0
0:4AD7249B18ED2BCD96EFE6F8E3D0DEDCDF3D17678F8FAAEE2E5C305EF3618564,EQBK1ySbGO0rzZbv5vjj0N7c3z0XZ4-Pqu4uXDBe82GFZAjm,UQBK1ySbGO0rzZbv5vjj0N7c3z0XZ4-Pqu4uXDBe82GFZFUj,wagmi,DEX,launchpad,wagmi,,,Ton.Fun referral address,,"['defi', 'referral-address']",ohld,2025-01-01T00:00:01Z,d54f3df85af38309a650d436dbc53fefd19169b0
0:6E24C8348BD261168814F35047998BC412441D83CE07442F51FB657D80AD44D3,EQBuJMg0i9JhFogU81BHmYvEEkQdg84HRC9R-2V9gK1E03cv,UQBuJMg0i9JhFogU81BHmYvEEkQdg84HRC9R-2V9gK1E0yrq,gaspump,DEX,Launchpad,gaspump,,,Revenue Sharing Payouts,,['defi'],ohld,2025-01-01T00:00:01Z,d54f3df85af38309a650d436dbc53fefd19169b0
0:CCD3D7B87B990AD02076BDA1EC98E989B5144DFBC7E7F8653134B0D38C44BEA0,EQDM09e4e5kK0CB2vaHsmOmJtRRN-8fn-GUxNLDTjES-oJA2,UQDM09e4e5kK0CB2vaHsmOmJtRRN-8fn-GUxNLDTjES-oM3z,gaspump,DEX,Launchpad,gaspump,,,Old Jetton Deployer,,['defi'],ohld,2025-01-01T00:00:01Z,d54f3df85af38309a650d436dbc53fefd19169b0
0:C2705CA692BEEFA522895CC0522C3CA88C95D32298E427583E66319C211090EA,EQDCcFymkr7vpSKJXMBSLDyojJXTIpjkJ1g-ZjGcIRCQ6gHc,UQDCcFymkr7vpSKJXMBSLDyojJXTIpjkJ1g-ZjGcIRCQ6lwZ,blum,DEX,launchpad,blum,,,Ton.Fun referral address,,"['defi', 'referral-address']",ohld,2025-01-01T00:00:01Z,d54f3df85af38309a650d436dbc53fefd19169b0
0:342A359E38357C083968129FDDDDF049EF5C47315BFBEF27505A356BF9F02D65,EQA0KjWeODV8CDloEp_d3fBJ71xHMVv77ydQWjVr-fAtZSqw,UQA0KjWeODV8CDloEp_d3fBJ71xHMVv77ydQWjVr-fAtZXd1,coinex,CEX,,coinex,,datalake-test.cex_labels_20241116,,,[],ziga,2024-12-12T10:09:26Z,d54f3df85af38309a650d436dbc53fefd19169b0
0:F9873509DE5A2F97F7B2805F5F7AAFAB447F43C91E751CC8EFABC6D2EA09D78A,EQD5hzUJ3lovl_eygF9feq-rRH9DyR51HMjvq8bS6gnXimGv,UQD5hzUJ3lovl_eygF9feq-rRH9DyR51HMjvq8bS6gnXijxq,bingx,CEX,,bingx,,datalake-test.cex_labels_20241116,,,[],ziga,2024-12-12T10:09:26Z,d54f3df85af38309a650d436dbc53fefd19169b0
0:A4D2072B1EDC1355FC7FBEE0095BEEC7889A2D3CFAA9EDCF2CE9E128631ABBD6,EQCk0gcrHtwTVfx_vuAJW-7HiJotPPqp7c8s6eEoYxq71hcS,UQCk0gcrHtwTVfx_vuAJW-7HiJotPPqp7c8s6eEoYxq71krX,coinone,CEX,,coinone,,https://tonalytica.redoubt.online/queries/776/source,,,['withdrawal'],ziga,2024-11-25T19:52:44Z,d54f3df85af38309a650d436dbc53fefd19169b0
0:1882478DAEF1B7ED200CBBDC201BD4ED0B24C2E5F1A4C7C15AEB7E3B1A759193,EQAYgkeNrvG37SAMu9wgG9TtCyTC5fGkx8Fa6347GnWRk0v_,UQAYgkeNrvG37SAMu9wgG9TtCyTC5fGkx8Fa6347GnWRkxY6,coinone,CEX,,coinone,,https://tonalytica.redoubt.online/queries/776/source,,,['deposit'],ziga,2024-11-25T19:52:44Z,d54f3df85af38309a650d436dbc53fefd19169b0
0:00FFAFA9FB3D4F837824436D19953C792BE6632AF73A9B82C4DC69CA07195087,EQAA_6-p-z1Pg3gkQ20ZlTx5K-ZjKvc6m4LE3GnKBxlQh-Jl,UQAA_6-p-z1Pg3gkQ20ZlTx5K-ZjKvc6m4LE3GnKBxlQh7-g,matrixport,CEX,,matrixport,,datalake-test.cex_labels_20241116,,,[],ziga,2024-12-12T10:09:26Z,d54f3df85af38309a650d436dbc53fefd19169b0
0:00B402B789E5626E1C61B50C5DBE2024426E92F16C0C2FB735396DF96046B5FA,EQAAtAK3ieVibhxhtQxdviAkQm6S8WwML7c1OW35YEa1-hgy,UQAAtAK3ieVibhxhtQxdviAkQm6S8WwML7c1OW35YEa1-kX3,bit,CEX,,bit,,datalake-test.cex_labels_20241116,,,[],ziga,2024-12-12T10:09:26Z,d54f3df85af38309a650d436dbc53fefd19169b0
0:FB78933F4F3882857AF65D71465C417286C005FE83A73B92F25A34B631337B1E,EQD7eJM_TziChXr2XXFGXEFyhsAF_oOnO5LyWjS2MTN7HpaU,UQD7eJM_TziChXr2XXFGXEFyhsAF_oOnO5LyWjS2MTN7HstR,bybit,CEX,,bybit,,https://tonalytica.redoubt.online/queries/776/source,,,[],ziga,2024-11-25T19:52:44Z,d54f3df85af38309a650d436dbc53fefd19169b0
0:6418094CA805537B68BD251E035B4065236E5AEA186EE7182685375B75459543,EQBkGAlMqAVTe2i9JR4DW0BlI25a6hhu5xgmhTdbdUWVQ7Vd,UQBkGAlMqAVTe2i9JR4DW0BlI25a6hhu5xgmhTdbdUWVQ-iY,bybit,CEX,,bybit,,https://tonalytica.redoubt.online/queries/776/source,,,[],ziga,2024-11-25T19:52:44Z,d54f3df85af38309a650d436dbc53fefd19169b0
0:9331398DD91D8585B97D02DF81F53D0CE6C803D0D05B44CB03E8B839F76697C7,EQCTMTmN2R2Fhbl9At-B9T0M5sgD0NBbRMsD6Lg592aXx7cC,UQCTMTmN2R2Fhbl9At-B9T0M5sgD0NBbRMsD6Lg592aXx-rH,bybit,CEX,,bybit,,https://tonalytica.redoubt.online/queries/776/source,,,[],ziga,2024-11-25T19:52:44Z,d54f3df85af38309a650d436dbc53fefd19169b0
0:8C923D652731CE04626608DA3B69047EA44DEA29D7740D6A1CAF45F30DDFC212,EQCMkj1lJzHOBGJmCNo7aQR-pE3qKdd0DWocr0XzDd_CErNz,UQCMkj1lJzHOBGJmCNo7aQR-pE3qKdd0DWocr0XzDd_CEu62,bybit,CEX,,bybit,,https://tonalytica.redoubt.online/queries/776/source,,,[],ziga,2024-11-25T19:52:44Z,d54f3df85af38309a650d436dbc53fefd19169b0
0:99FBB6A40B0FDDBE5FD0E71CAB896A825DD5AE6C83DBB8DEDA0D09735F8E696B,EQCZ-7akCw_dvl_Q5xyriWqCXdWubIPbuN7aDQlzX45paxCU,UQCZ-7akCw_dvl_Q5xyriWqCXdWubIPbuN7aDQlzX45pa01R,bybit,CEX,,bybit,,https://tonalytica.redoubt.online/queries/776/source,,,[],ziga,2024-11-25T19:52:44Z,d54f3df85af38309a650d436dbc53fefd19169b0
0:FE438BC7EE3123D952FB4FC7E27714ECA7ED0DB02FEA967A492C89A06C43D4A2,EQD-Q4vH7jEj2VL7T8fidxTsp-0NsC_qlnpJLImgbEPUotuj,UQD-Q4vH7jEj2VL7T8fidxTsp-0NsC_qlnpJLImgbEPUooZm,bybit,CEX,,bybit,,https://tonalytica.redoubt.online/queries/776/source,,,[],ziga,2024-11-25T19:52:44Z,d54f3df85af38309a650d436dbc53fefd19169b0
0:5CA8EACF14ED19DE095758C13F1B7C2DDDB0C6EDF3085898E282C8EA8049CD95,EQBcqOrPFO0Z3glXWME_G3wt3bDG7fMIWJjigsjqgEnNlWot,UQBcqOrPFO0Z3glXWME_G3wt3bDG7fMIWJjigsjqgEnNlTfo,bybit,CEX,,bybit,,https://tonalytica.redoubt.online/queries/776/source,,,[],ziga,2024-11-25T19:52:44Z,d54f3df85af38309a650d436dbc53fefd19169b0
0:138D848642123F3A15C1D1C8781C010ABB6712BB40B05747E16FEEF494239781,EQATjYSGQhI_OhXB0ch4HAEKu2cSu0CwV0fhb-70lCOXgeaZ,UQATjYSGQhI_OhXB0ch4HAEKu2cSu0CwV0fhb-70lCOXgbtc,bybit,CEX,,bybit,,https://tonalytica.redoubt.online/queries/776/source,,,[],ziga,2024-11-25T19:52:44Z,d54f3df85af38309a650d436dbc53fefd19169b0
0:A07B47F2E8DF490275836ACB2E2AEDD62F90781800DFCEF9A24FDC0BA24E1874,EQCge0fy6N9JAnWDassuKu3WL5B4GADfzvmiT9wLok4YdPrI,UQCge0fy6N9JAnWDassuKu3WL5B4GADfzvmiT9wLok4YdKcN,bybit,CEX,,bybit,,https://tonalytica.redoubt.online/queries/776/source,,,[],ziga,2024-11-25T19:52:44Z,d54f3df85af38309a650d436dbc53fefd19169b0
0:02BC67445CFA0673004AE9145D619AF035834D50DECEBD34551488549304828A,EQACvGdEXPoGcwBK6RRdYZrwNYNNUN7OvTRVFIhUkwSCihtO,UQACvGdEXPoGcwBK6RRdYZrwNYNNUN7OvTRVFIhUkwSCikaL,bybit,CEX,,bybit,,https://tonalytica.redoubt.online/queries/776/source,,,[],ziga,2024-11-25T19:52:44Z,d54f3df85af38309a650d436dbc53fefd19169b0
0:CF901ED71E07C21F7E2BF5886A8BB870E264C49E9110198F42E911E25C7BECBD,EQDPkB7XHgfCH34r9Yhqi7hw4mTEnpEQGY9C6RHiXHvsvdMF,UQDPkB7XHgfCH34r9Yhqi7hw4mTEnpEQGY9C6RHiXHvsvY7A,bybit,CEX,,bybit,,https://tonalytica.redoubt.online/queries/776/source,,,[],ziga,2024-11-25T19:52:44Z,d54f3df85af38309a650d436dbc53fefd19169b0
0:AE7FDC40D253EC9DFA72DAEC7BA9C28193CD87837F6F014574392D0025078D96,EQCuf9xA0lPsnfpy2ux7qcKBk82Hg39vAUV0OS0AJQeNllht,UQCuf9xA0lPsnfpy2ux7qcKBk82Hg39vAUV0OS0AJQeNlgWo,bybit,CEX,,bybit,,https://tonalytica.redoubt.online/queries/776/source,,,[],ziga,2024-11-25T19:52:44Z,d54f3df85af38309a650d436dbc53fefd19169b0
0:C7E6B2BBF4B3BBEF51EA0139870A45EC21712C4374462FEF2C1B843BAC126A6B,EQDH5rK79LO771HqATmHCkXsIXEsQ3RGL-8sG4Q7rBJqa-wB,UQDH5rK79LO771HqATmHCkXsIXEsQ3RGL-8sG4Q7rBJqa7HE,bybit,CEX,,bybit,,https://tonalytica.redoubt.online/queries/776/source,,,[],ziga,2024-11-25T19:52:44Z,d54f3df85af38309a650d436dbc53fefd19169b0
0:AD711578F891FEDC06AD07D974FC45E006A1F7E105B682F78DA17AF68A5314AF,EQCtcRV4-JH-3AatB9l0_EXgBqH34QW2gveNoXr2ilMUr31Q,UQCtcRV4-JH-3AatB9l0_EXgBqH34QW2gveNoXr2ilMUryCV,bybit,CEX,,bybit,,https://tonalytica.redoubt.online/queries/776/source,,,[],ziga,2024-11-25T19:52:44Z,d54f3df85af38309a650d436dbc53fefd19169b0
0:1A983B7AE3499FEC78FA56D6ED68B423497CFD06CE36D56988D73D519CAD1030,EQAamDt640mf7Hj6VtbtaLQjSXz9Bs421WmI1z1RnK0QMNcC,UQAamDt640mf7Hj6VtbtaLQjSXz9Bs421WmI1z1RnK0QMIrH,bybit,CEX,,bybit,,https://tonalytica.redoubt.online/queries/776/source,,,[],ziga,2024-11-25T19:52:44Z,d54f3df85af38309a650d436dbc53fefd19169b0
0:383E8FFA71016D94623908436A28434B62D444799A66A70C12575DDD9FBDEDA3,EQA4Po_6cQFtlGI5CENqKENLYtREeZpmpwwSV13dn73tozP3,UQA4Po_6cQFtlGI5CENqKENLYtREeZpmpwwSV13dn73to24y,bybit,CEX,,bybit,,https://tonalytica.redoubt.online/queries/776/source,,,[],ziga,2024-11-25T19:52:44Z,d54f3df85af38309a650d436dbc53fefd19169b0
0:E3CE05C4DA977132C24A3B102DA8B5FBF2EA9173337B49DE346E4A4B057F7579,EQDjzgXE2pdxMsJKOxAtqLX78uqRczN7Sd40bkpLBX91ebwy,UQDjzgXE2pdxMsJKOxAtqLX78uqRczN7Sd40bkpLBX91eeH3,bybit,CEX,,bybit,,https://tonalytica.redoubt.online/queries/776/source,,,[],ziga,2024-11-25T19:52:44Z,d54f3df85af38309a650d436dbc53fefd19169b0
0:33DBAFD8737B09B74D09561B5559D154D1A00DA45439CB5DF705E2152A97406B,EQAz26_Yc3sJt00JVhtVWdFU0aANpFQ5y133BeIVKpdAayJJ,UQAz26_Yc3sJt00JVhtVWdFU0aANpFQ5y133BeIVKpdAa3-M,bybit,CEX,,bybit,,https://tonalytica.redoubt.online/queries/776/source,,,[],ziga,2024-11-25T19:52:44Z,d54f3df85af38309a650d436dbc53fefd19169b0
0:E33EF85D174EB457C072D1EE10215B69AB9B64192F7421302AB1C8E26B7AD4BD,EQDjPvhdF060V8By0e4QIVtpq5tkGS90ITAqscjia3rUvdWd,UQDjPvhdF060V8By0e4QIVtpq5tkGS90ITAqscjia3rUvYhY,bybit,CEX,,bybit,,https://tonalytica.redoubt.online/queries/776/source,,,[],ziga,2024-11-25T19:52:44Z,d54f3df85af38309a650d436dbc53fefd19169b0
0:4D8F25A5A2FB0A44BEEB2745F32A9941176AAFDB17E06665CF45DB434DDE58B3,EQBNjyWlovsKRL7rJ0XzKplBF2qv2xfgZmXPRdtDTd5Ysx6A,UQBNjyWlovsKRL7rJ0XzKplBF2qv2xfgZmXPRdtDTd5Ys0NF,bybit,CEX,,bybit,,https://tonalytica.redoubt.online/queries/776/source,,,[],ziga,2024-11-25T19:52:44Z,d54f3df85af38309a650d436dbc53fefd19169b0
0:EC59F659DF52524A96146FACEF9A9826179A379C205A340121C4CBA78D71A0BD,EQDsWfZZ31JSSpYUb6zvmpgmF5o3nCBaNAEhxMunjXGgvUNx,UQDsWfZZ31JSSpYUb6zvmpgmF5o3nCBaNAEhxMunjXGgvR60,bybit,CEX,,bybit,,https://tonalytica.redoubt.online/queries/776/source,,,[],ziga,2024-11-25T19:52:44Z,d54f3df85af38309a650d436dbc53fefd19169b0
0:AA0CC37A70A3EA7AD7E4265C3A6DCB1726B081E3E68A49251AA89D26DFBFFF0C,EQCqDMN6cKPqetfkJlw6bcsXJrCB4-aKSSUaqJ0m37__DJgC,UQCqDMN6cKPqetfkJlw6bcsXJrCB4-aKSSUaqJ0m37__DMXH,bybit,CEX,,bybit,,https://tonalytica.redoubt.online/queries/776/source,,,[],ziga,2024-11-25T19:52:44Z,d54f3df85af38309a650d436dbc53fefd19169b0
0:A74A56B105AADE2F427F2F810BDD8F2EBD97D530E625E77C3D5B95F3EA9DBAD4,EQCnSlaxBareL0J_L4EL3Y8uvZfVMOYl53w9W5Xz6p261J4X,UQCnSlaxBareL0J_L4EL3Y8uvZfVMOYl53w9W5Xz6p261MPS,bybit,CEX,,bybit,,https://tonalytica.redoubt.online/queries/776/source,,,[],ziga,2024-11-25T19:52:44Z,d54f3df85af38309a650d436dbc53fefd19169b0
0:1528BF3B16FF1A734B1FB4970A8574CA46C7B77C15775A8E55238FAA870C1139,EQAVKL87Fv8ac0sftJcKhXTKRse3fBV3Wo5VI4-qhwwRORwb,UQAVKL87Fv8ac0sftJcKhXTKRse3fBV3Wo5VI4-qhwwROUHe,bybit,CEX,,bybit,,https://tonalytica.redoubt.online/queries/776/source,,,[],ziga,2024-11-25T19:52:44Z,d54f3df85af38309a650d436dbc53fefd19169b0
0:30B2C001B3B37CE41AEAF0CA9DD20A1DE56AB1A88C5AEBDFF89CC4269DB7BB8D,EQAwssABs7N85Brq8Mqd0god5WqxqIxa69_4nMQmnbe7jTg5,UQAwssABs7N85Brq8Mqd0god5WqxqIxa69_4nMQmnbe7jWX8,bybit,CEX,,bybit,,https://tonalytica.redoubt.online/queries/776/source,,,[],ziga,2024-11-25T19:52:44Z,d54f3df85af38309a650d436dbc53fefd19169b0
0:C3F1DA8ECDA8F8CD42BACE224EA3F1B6971EAA7F54C492D4D190527B4F573F7C,EQDD8dqOzaj4zUK6ziJOo_G2lx6qf1TEktTRkFJ7T1c_fPQb,UQDD8dqOzaj4zUK6ziJOo_G2lx6qf1TEktTRkFJ7T1c_fKne,bybit,CEX,,bybit,,ton weekly slides,,,[],ziga,2024-11-25T20:24:29Z,d54f3df85af38309a650d436dbc53fefd19169b0
0:10E14797EB9589543FD3EF9919A48CD037BDD89DC72217B2460863C54AA4BFEA,EQAQ4UeX65WJVD_T75kZpIzQN73YncciF7JGCGPFSqS_6nxO,UQAQ4UeX65WJVD_T75kZpIzQN73YncciF7JGCGPFSqS_6iGL,bybit,CEX,,bybit,,https://tonalytica.redoubt.online/queries/776/source,,,[],ziga,2024-11-25T19:52:44Z,d54f3df85af38309a650d436dbc53fefd19169b0
0:4CE61FD411C583A1CC9A8F4CAE73AE13D30C4C75397C8541F69D45630820A206,EQBM5h_UEcWDocyaj0yuc64T0wxMdTl8hUH2nUVjCCCiBgQt,UQBM5h_UEcWDocyaj0yuc64T0wxMdTl8hUH2nUVjCCCiBlno,bybit,CEX,,bybit,,https://tonalytica.redoubt.online/queries/776/source,,,[],ziga,2024-11-25T19:52:44Z,d54f3df85af38309a650d436dbc53fefd19169b0
0:6B2F0693A7B3455C6C329E85DF243C3F675B9E45238798CBC02EDD362064ECDD,EQBrLwaTp7NFXGwynoXfJDw_Z1ueRSOHmMvALt02IGTs3bDk,UQBrLwaTp7NFXGwynoXfJDw_Z1ueRSOHmMvALt02IGTs3e0h,bybit,CEX,,bybit,,https://tonalytica.redoubt.online/queries/776/source,,,[],ziga,2024-11-25T19:52:44Z,d54f3df85af38309a650d436dbc53fefd19169b0
0:8E04D720F9CDF30406B28C346B17028D90EDC0AA53D8990AFE36D9CCE0BF6379,EQCOBNcg-c3zBAayjDRrFwKNkO3AqlPYmQr-NtnM4L9jeQz-,UQCOBNcg-c3zBAayjDRrFwKNkO3AqlPYmQr-NtnM4L9jeVE7,bybit,CEX,,bybit,,https://tonalytica.redoubt.online/queries/776/source,,,[],ziga,2024-11-25T19:52:44Z,d54f3df85af38309a650d436dbc53fefd19169b0
0:CD525C15904D7B4027EAE08B318624260F371CE8C9F4FCCA0CDB7B583854107C,EQDNUlwVkE17QCfq4IsxhiQmDzcc6Mn0_MoM23tYOFQQfE_R,UQDNUlwVkE17QCfq4IsxhiQmDzcc6Mn0_MoM23tYOFQQfBIU,bybit,CEX,,bybit,,https://tonalytica.redoubt.online/queries/776/source,,,[],ziga,2024-11-25T19:52:44Z,d54f3df85af38309a650d436dbc53fefd19169b0
0:AE62A192DA96E266161A702CC9F6DE91C0C3441F17CEBA51BC442DFB2031A30A,EQCuYqGS2pbiZhYacCzJ9t6RwMNEHxfOulG8RC37IDGjCmeU,UQCuYqGS2pbiZhYacCzJ9t6RwMNEHxfOulG8RC37IDGjCjpR,bybit,CEX,,bybit,,https://tonalytica.redoubt.online/queries/776/source,,,[],ziga,2024-11-25T19:52:44Z,d54f3df85af38309a650d436dbc53fefd19169b0
0:4E12568D9005B95566075DF4CA2815BB559FD0AB62C500B41957EC345720BEFD,EQBOElaNkAW5VWYHXfTKKBW7VZ_Qq2LFALQZV-w0VyC-_SdS,UQBOElaNkAW5VWYHXfTKKBW7VZ_Qq2LFALQZV-w0VyC-_XqX,bybit,CEX,,bybit,,https://tonalytica.redoubt.online/queries/776/source,,,[],ziga,2024-11-25T19:52:44Z,d54f3df85af38309a650d436dbc53fefd19169b0
0:4A6F0AA65204D70E6042430633C178F5C9E925F1FEB3F900E2BBD5D270F7CFAD,EQBKbwqmUgTXDmBCQwYzwXj1yekl8f6z-QDiu9XScPfPrXH9,UQBKbwqmUgTXDmBCQwYzwXj1yekl8f6z-QDiu9XScPfPrSw4,bybit,CEX,,bybit,,https://tonalytica.redoubt.online/queries/776/source,,,[],ziga,2024-11-25T19:52:44Z,d54f3df85af38309a650d436dbc53fefd19169b0
0:9ED2EF9FC3FCF5206B525934F32A62A71BF625A5D359E7173228ED7578F477E4,EQCe0u-fw_z1IGtSWTTzKmKnG_YlpdNZ5xcyKO11ePR35Ee9,UQCe0u-fw_z1IGtSWTTzKmKnG_YlpdNZ5xcyKO11ePR35Bp4,bybit,CEX,,bybit,,https://tonalytica.redoubt.online/queries/776/source,,,[],ziga,2024-11-25T19:52:44Z,d54f3df85af38309a650d436dbc53fefd19169b0
0:E1BAFC89EAE58D01D6D2B4436BF76836BEAB6E97287A793923DDBF8BE987A2D9,EQDhuvyJ6uWNAdbStENr92g2vqtulyh6eTkj3b-L6Yei2ZGY,UQDhuvyJ6uWNAdbStENr92g2vqtulyh6eTkj3b-L6Yei2cxd,bybit,CEX,,bybit,,https://tonalytica.redoubt.online/queries/776/source,,,[],ziga,2024-11-25T19:52:44Z,d54f3df85af38309a650d436dbc53fefd19169b0
0:673BECA38C97C8E225EB49F739E73458EF437A2027D790ABECFE19094C448262,EQBnO-yjjJfI4iXrSfc55zRY70N6ICfXkKvs_hkJTESCYmsM,UQBnO-yjjJfI4iXrSfc55zRY70N6ICfXkKvs_hkJTESCYjbJ,bybit,CEX,,bybit,,https://tonalytica.redoubt.online/queries/776/source,,,[],ziga,2024-11-25T19:52:44Z,d54f3df85af38309a650d436dbc53fefd19169b0
0:FEEFF59CDED095A1565EE092BB7FD5577698A15254E644F2495061EC25989004,EQD-7_Wc3tCVoVZe4JK7f9VXdpihUlTmRPJJUGHsJZiQBPpG,UQD-7_Wc3tCVoVZe4JK7f9VXdpihUlTmRPJJUGHsJZiQBKeD,bybit,CEX,,bybit,,https://tonalytica.redoubt.online/queries/776/source,,,[],ziga,2024-11-25T19:52:44Z,d54f3df85af38309a650d436dbc53fefd19169b0
0:540F99BFCDB3B81D42CACB4AE25D23F169681B6DF92A6501E5F8C254C5DE0FA3,EQBUD5m_zbO4HULKy0riXSPxaWgbbfkqZQHl-MJUxd4Po5P4,UQBUD5m_zbO4HULKy0riXSPxaWgbbfkqZQHl-MJUxd4Po849,bybit,CEX,,bybit,,https://tonalytica.redoubt.online/queries/776/source,,,[],ziga,2024-11-25T19:52:44Z,d54f3df85af38309a650d436dbc53fefd19169b0
0:CE9D9FD758EB3F86D6AF6B729896156E8203F1A975FA98E9DCEA55A4F3B9502A,EQDOnZ_XWOs_htava3KYlhVuggPxqXX6mOnc6lWk87lQKhTK,UQDOnZ_XWOs_htava3KYlhVuggPxqXX6mOnc6lWk87lQKkkP,bybit,CEX,,bybit,,https://tonalytica.redoubt.online/queries/776/source,,,[],ziga,2024-11-25T19:52:44Z,d54f3df85af38309a650d436dbc53fefd19169b0
0:E11E95BA088D0F954849A192F772227C3C4479ED64EE965A9CB02C02309B9139,EQDhHpW6CI0PlUhJoZL3ciJ8PER57WTullqcsCwCMJuROQBm,UQDhHpW6CI0PlUhJoZL3ciJ8PER57WTullqcsCwCMJuROV2j,bybit,CEX,,bybit,,https://tonalytica.redoubt.online/queries/776/source,,,[],ziga,2024-11-25T19:52:44Z,d54f3df85af38309a650d436dbc53fefd19169b0
0:F502696D18BF57F32F58D0E655213107399E6609A96F72A8443D448CDA08DEB3,EQD1AmltGL9X8y9Y0OZVITEHOZ5mCalvcqhEPUSM2gjes_Hk,UQD1AmltGL9X8y9Y0OZVITEHOZ5mCalvcqhEPUSM2gjes6wh,bybit,CEX,,bybit,,https://tonalytica.redoubt.online/queries/776/source,,,[],ziga,2024-11-25T19:52:44Z,d54f3df85af38309a650d436dbc53fefd19169b0
0:54AE04D3FBBB514D7A4BCFBBD7FDD381573E7CCB5D06DBFABE7F2D0D2563AF1A,EQBUrgTT-7tRTXpLz7vX_dOBVz58y10G2_q-fy0NJWOvGkYT,UQBUrgTT-7tRTXpLz7vX_dOBVz58y10G2_q-fy0NJWOvGhvW,bybit,CEX,,bybit,,https://tonalytica.redoubt.online/queries/776/source,,,[],ziga,2024-11-25T19:52:44Z,d54f3df85af38309a650d436dbc53fefd19169b0
0:46C8D602F9F77737289BEA872BB9800A4B0C7954258AE5B8C1B133D0A591BBFB,EQBGyNYC-fd3Nyib6ocruYAKSwx5VCWK5bjBsTPQpZG7-5UI,UQBGyNYC-fd3Nyib6ocruYAKSwx5VCWK5bjBsTPQpZG7-8jN,bybit,CEX,,bybit,,https://tonalytica.redoubt.online/queries/776/source,,,[],ziga,2024-11-25T19:52:44Z,d54f3df85af38309a650d436dbc53fefd19169b0
0:3B812795F66C16E59BE05216173D70BE558C540DCBC9508BFDC2183530D74EEA,EQA7gSeV9mwW5ZvgUhYXPXC-VYxUDcvJUIv9whg1MNdO6uPN,UQA7gSeV9mwW5ZvgUhYXPXC-VYxUDcvJUIv9whg1MNdO6r4I,bybit,CEX,,bybit,,https://tonalytica.redoubt.online/queries/776/source,,,[],ziga,2024-11-25T19:52:44Z,d54f3df85af38309a650d436dbc53fefd19169b0
0:8666871CF8A1E417679A6C6144D327461B2DBCAEA1BE2B023A739CA9F21608E8,EQCGZocc-KHkF2eabGFE0ydGGy28rqG-KwI6c5yp8hYI6EH6,UQCGZocc-KHkF2eabGFE0ydGGy28rqG-KwI6c5yp8hYI6Bw_,bybit,CEX,,bybit,,https://tonalytica.redoubt.online/queries/776/source,,,[],ziga,2024-11-25T19:52:44Z,d54f3df85af38309a650d436dbc53fefd19169b0
0:7E6A1FC61700FFC4D9758C40DAF5F31360B09836884E9E18AE849237549FEEAD,EQB-ah_GFwD_xNl1jEDa9fMTYLCYNohOnhiuhJI3VJ_ure4G,UQB-ah_GFwD_xNl1jEDa9fMTYLCYNohOnhiuhJI3VJ_urbPD,bybit,CEX,,bybit,,https://tonalytica.redoubt.online/queries/776/source,,,[],ziga,2024-11-25T19:52:44Z,d54f3df85af38309a650d436dbc53fefd19169b0
0:CB2E72FB41FA957AF01863DB157092BF510F89F4D91D24D1174C61B02A1750F9,EQDLLnL7QfqVevAYY9sVcJK_UQ-J9NkdJNEXTGGwKhdQ-Wiv,UQDLLnL7QfqVevAYY9sVcJK_UQ-J9NkdJNEXTGGwKhdQ-TVq,bybit,CEX,,bybit,,https://tonalytica.redoubt.online/queries/776/source,,,[],ziga,2024-11-25T19:52:44Z,d54f3df85af38309a650d436dbc53fefd19169b0
0:87562451DD370F0B345D9F74BB6B48026EC092A6573CC02C2E40BB6C4E4DB753,EQCHViRR3TcPCzRdn3S7a0gCbsCSplc8wCwuQLtsTk23U0Yv,UQCHViRR3TcPCzRdn3S7a0gCbsCSplc8wCwuQLtsTk23Uxvq,bybit,CEX,,bybit,,https://tonalytica.redoubt.online/queries/776/source,,,[],ziga,2024-11-25T19:52:44Z,d54f3df85af38309a650d436dbc53fefd19169b0
0:5331D47D46FFA45758AD8E9DA1CAF977D9B3C61CC4E17A9DDAB8E4347BC27C5C,EQBTMdR9Rv-kV1itjp2hyvl32bPGHMThep3auOQ0e8J8XBeL,UQBTMdR9Rv-kV1itjp2hyvl32bPGHMThep3auOQ0e8J8XEpO,bybit,CEX,,bybit,,https://tonalytica.redoubt.online/queries/776/source,,,[],ziga,2024-11-25T19:52:44Z,d54f3df85af38309a650d436dbc53fefd19169b0
0:2D225FE9EAC7AFBADB112A076E429E79CD3710129F65A16D3D514A1708D211BB,EQAtIl_p6sevutsRKgduQp55zTcQEp9loW09UUoXCNIRu17c,UQAtIl_p6sevutsRKgduQp55zTcQEp9loW09UUoXCNIRuwMZ,bybit,CEX,,bybit,,https://tonalytica.redoubt.online/queries/776/source,,,[],ziga,2024-11-25T19:52:44Z,d54f3df85af38309a650d436dbc53fefd19169b0
0:D50300B9AA307E44CA1884220EB161CD1EE7088ADAB51DF287D08D94E3D9FC72,EQDVAwC5qjB-RMoYhCIOsWHNHucIitq1HfKH0I2U49n8clGw,UQDVAwC5qjB-RMoYhCIOsWHNHucIitq1HfKH0I2U49n8cgx1,bybit,CEX,,bybit,,https://tonalytica.redoubt.online/queries/776/source,,,[],ziga,2024-11-25T19:52:44Z,d54f3df85af38309a650d436dbc53fefd19169b0
0:865974621FD9BE4237853C228D3673FDD2682FE7FEA21B5B311E84334539263B,EQCGWXRiH9m-QjeFPCKNNnP90mgv5_6iG1sxHoQzRTkmO0nb,UQCGWXRiH9m-QjeFPCKNNnP90mgv5_6iG1sxHoQzRTkmOxQe,bybit,CEX,,bybit,,https://tonalytica.redoubt.online/queries/776/source,,,[],ziga,2024-11-25T19:52:44Z,d54f3df85af38309a650d436dbc53fefd19169b0
0:04239D87BF259644FE840D8D62DFEB01E7221EF5368ED730CE0EC7142CA31FC4,EQAEI52HvyWWRP6EDY1i3-sB5yIe9TaO1zDODscULKMfxKOC,UQAEI52HvyWWRP6EDY1i3-sB5yIe9TaO1zDODscULKMfxP5H,bybit,CEX,,bybit,,https://tonalytica.redoubt.online/queries/776/source,,,[],ziga,2024-11-25T19:52:44Z,d54f3df85af38309a650d436dbc53fefd19169b0
0:F088EA330DB949DF29B0E3D5E7D5F2FFB73870701A09954EDFF61AA7F72329C9,EQDwiOozDblJ3ymw49Xn1fL_tzhwcBoJlU7f9hqn9yMpyW6O,UQDwiOozDblJ3ymw49Xn1fL_tzhwcBoJlU7f9hqn9yMpyTNL,bybit,CEX,,bybit,,https://tonalytica.redoubt.online/queries/776/source,,,[],ziga,2024-11-25T19:52:44Z,d54f3df85af38309a650d436dbc53fefd19169b0
0:6AF2B9E386DB21E8B27B3624648D969F58F1B241655EC8CE571295F473A322BA,EQBq8rnjhtsh6LJ7NiRkjZafWPGyQWVeyM5XEpX0c6Miuqtn,UQBq8rnjhtsh6LJ7NiRkjZafWPGyQWVeyM5XEpX0c6Miuvai,bybit,CEX,,bybit,,https://tonalytica.redoubt.online/queries/776/source,,,[],ziga,2024-11-25T19:52:44Z,d54f3df85af38309a650d436dbc53fefd19169b0
0:146EB30CC6BEE555D3676492285826AD58D720AAE3CD86EEA3EF9CD9DCCAC64D,EQAUbrMMxr7lVdNnZJIoWCatWNcgquPNhu6j75zZ3MrGTfp4,UQAUbrMMxr7lVdNnZJIoWCatWNcgquPNhu6j75zZ3MrGTae9,bybit,CEX,,bybit,,https://tonalytica.redoubt.online/queries/776/source,,,[],ziga,2024-11-25T19:52:44Z,d54f3df85af38309a650d436dbc53fefd19169b0
0:1A91AC5DB4594A52F03E6496E3B367F5456D32741CC671B8F4128C701608F847,EQAakaxdtFlKUvA-ZJbjs2f1RW0ydBzGcbj0EoxwFgj4R-j2,UQAakaxdtFlKUvA-ZJbjs2f1RW0ydBzGcbj0EoxwFgj4R7Uz,bybit,CEX,,bybit,,https://tonalytica.redoubt.online/queries/776/source,,,[],ziga,2024-11-25T19:52:44Z,d54f3df85af38309a650d436dbc53fefd19169b0
0:286808442210912F2FE31CAA0CFF168D8ED68CBA9A2C8D3D59AC067B06087296,EQAoaAhEIhCRLy_jHKoM_xaNjtaMuposjT1ZrAZ7BghylnTx,UQAoaAhEIhCRLy_jHKoM_xaNjtaMuposjT1ZrAZ7Bghylik0,bybit,CEX,,bybit,,https://tonalytica.redoubt.online/queries/776/source,,,[],ziga,2024-11-25T19:52:44Z,d54f3df85af38309a650d436dbc53fefd19169b0
0:C22D082C222C4A4B688BBFF8A6C51C00729ABC6C4A91BFBDE99A7482E104CDDD,EQDCLQgsIixKS2iLv_imxRwAcpq8bEqRv73pmnSC4QTN3ULh,UQDCLQgsIixKS2iLv_imxRwAcpq8bEqRv73pmnSC4QTN3R8k,bybit,CEX,,bybit,,https://tonalytica.redoubt.online/queries/776/source,,,[],ziga,2024-11-25T19:52:44Z,d54f3df85af38309a650d436dbc53fefd19169b0
0:6BA9A8897BB107AA49A43126E111AFFFD1979EAD09C39EFD22D6FD4F91E3E572,EQBrqaiJe7EHqkmkMSbhEa__0ZeerQnDnv0i1v1PkePlcrxT,UQBrqaiJe7EHqkmkMSbhEa__0ZeerQnDnv0i1v1PkePlcuGW,bybit,CEX,,bybit,,https://tonalytica.redoubt.online/queries/776/source,,,[],ziga,2024-11-25T19:52:44Z,d54f3df85af38309a650d436dbc53fefd19169b0
0:26E58232F183F3C02FCF301BEA4AC812726927211F2C7C6DD5B4BEF520C7FF52,EQAm5YIy8YPzwC_PMBvqSsgScmknIR8sfG3VtL71IMf_UrHv,UQAm5YIy8YPzwC_PMBvqSsgScmknIR8sfG3VtL71IMf_Uuwq,bybit,CEX,,bybit,,https://tonalytica.redoubt.online/queries/776/source,,,[],ziga,2024-11-25T19:52:44Z,d54f3df85af38309a650d436dbc53fefd19169b0
0:4A1F3EBCC66BDCEFA90245BDF541A50ADA1C688A487534B1587ABFFD93038834,EQBKHz68xmvc76kCRb31QaUK2hxoikh1NLFYer_9kwOINGaa,UQBKHz68xmvc76kCRb31QaUK2hxoikh1NLFYer_9kwOINDtf,bybit,CEX,,bybit,,https://tonalytica.redoubt.online/queries/776/source,,,[],ziga,2024-11-25T19:52:44Z,d54f3df85af38309a650d436dbc53fefd19169b0
0:7D133D4E425C8E00DE015513A44E66E6D163B21E71720AEC7579965E5DE28C55,EQB9Ez1OQlyOAN4BVROkTmbm0WOyHnFyCux1eZZeXeKMVV6_,UQB9Ez1OQlyOAN4BVROkTmbm0WOyHnFyCux1eZZeXeKMVQN6,bybit,CEX,,bybit,,datalake-test.cex_labels_20241116,,,[],ziga,2024-12-12T10:09:26Z,d54f3df85af38309a650d436dbc53fefd19169b0
0:7F97F36DDA3F7DEDC9E12F8C09C4F89E7FBC17527AB3F67DE4C3B155297A56E4,EQB_l_Nt2j997cnhL4wJxPief7wXUnqz9n3kw7FVKXpW5L0A,UQB_l_Nt2j997cnhL4wJxPief7wXUnqz9n3kw7FVKXpW5ODF,bybit,CEX,,bybit,,datalake-test.cex_labels_20241116,,,[],ziga,2024-12-12T10:09:26Z,d54f3df85af38309a650d436dbc53fefd19169b0
0:011A8F0A0B36B779AF033473274966666D1CD6FB4E77DF679375FBD6F970D012,EQABGo8KCza3ea8DNHMnSWZmbRzW-05332eTdfvW-XDQEjQM,UQABGo8KCza3ea8DNHMnSWZmbRzW-05332eTdfvW-XDQEmnJ,xrocket,CEX,,xrocket,,datalake-test.cex_labels_20241116,,,[],ziga,2024-12-12T10:09:26Z,d54f3df85af38309a650d436dbc53fefd19169b0
0:75726A716F747E60B0371CB0D5D35471E8E1E931003FECC3A0961A8BD82C09C7,EQB1cmpxb3R-YLA3HLDV01Rx6OHpMQA_7MOglhqL2CwJx_dz,UQB1cmpxb3R-YLA3HLDV01Rx6OHpMQA_7MOglhqL2CwJx6q2,xrocket,CEX,,xrocket,,datalake-test.cex_labels_20241116,,,[],ziga,2024-12-12T10:09:26Z,d54f3df85af38309a650d436dbc53fefd19169b0
0:45614FEE399C43D77BB597558791831BC0EE31754CBB2B5B1FBF5A3488ED9940,EQBFYU_uOZxD13u1l1WHkYMbwO4xdUy7K1sfv1o0iO2ZQDLL,UQBFYU_uOZxD13u1l1WHkYMbwO4xdUy7K1sfv1o0iO2ZQG8O,xrocket,CEX,,xrocket,,datalake-test.cex_labels_20241116,,,[],ziga,2024-12-12T10:09:26Z,d54f3df85af38309a650d436dbc53fefd19169b0
0:C1DC654B598AB84CDA4F12372EFED8907CEDF0901865A58649087373E01B1C24,EQDB3GVLWYq4TNpPEjcu_tiQfO3wkBhlpYZJCHNz4BscJPaV,UQDB3GVLWYq4TNpPEjcu_tiQfO3wkBhlpYZJCHNz4BscJKtQ,xrocket,CEX,,xrocket,,datalake-test.cex_labels_20241116,,,[],ziga,2024-12-12T10:09:26Z,d54f3df85af38309a650d436dbc53fefd19169b0
0:4532D5BCDFB05D3275CBF255BC91C3635CD48D63B719441581C5542A4750FDF5,EQBFMtW837BdMnXL8lW8kcNjXNSNY7cZRBWBxVQqR1D99S1Q,UQBFMtW837BdMnXL8lW8kcNjXNSNY7cZRBWBxVQqR1D99XCV,nobitex,CEX,,nobitex,,ton weekly slides,,,[],ziga,2024-11-25T20:24:29Z,d54f3df85af38309a650d436dbc53fefd19169b0
0:A32D52CED80A23FE4FE90BA94593EF686DE03F9FBDAA069E642826A95234B982,EQCjLVLO2Aoj_k_pC6lFk-9obeA_n72qBp5kKCapUjS5grhs,UQCjLVLO2Aoj_k_pC6lFk-9obeA_n72qBp5kKCapUjS5guWp,nobitex,CEX,,nobitex,,ton weekly slides,,,[],ziga,2024-11-25T20:24:29Z,d54f3df85af38309a650d436dbc53fefd19169b0
0:CAD898B200A0934EE416C2039BBF3F5D7F1A323172875B3C19D378A6F540F7B1,EQDK2JiyAKCTTuQWwgObvz9dfxoyMXKHWzwZ03im9UD3sSze,UQDK2JiyAKCTTuQWwgObvz9dfxoyMXKHWzwZ03im9UD3sXEb,nobitex,CEX,,nobitex,,datalake-test.cex_labels_20241116,,,[],ziga,2024-12-12T10:09:26Z,d54f3df85af38309a650d436dbc53fefd19169b0
0:5D5A830E48214791F4AB5352900C624D3BFF3C5EFD630196B180158EB789990F,EQBdWoMOSCFHkfSrU1KQDGJNO_88Xv1jAZaxgBWOt4mZD1Rc,UQBdWoMOSCFHkfSrU1KQDGJNO_88Xv1jAZaxgBWOt4mZDwmZ,nobitex,CEX,,nobitex,,datalake-test.cex_labels_20241116,,,[],ziga,2024-12-12T10:09:26Z,d54f3df85af38309a650d436dbc53fefd19169b0
0:402F5D4F4F8BEA7B0BD511B9D3771834C1A22BBBBC8A326035EB07AA24F5C9F9,EQBAL11PT4vqewvVEbnTdxg0waIru7yKMmA16weqJPXJ-Zdg,UQBAL11PT4vqewvVEbnTdxg0waIru7yKMmA16weqJPXJ-cql,crypto.com,CEX,,crypto.com,,datalake-test.cex_labels_20241116,,,[],ziga,2024-12-12T10:09:26Z,d54f3df85af38309a650d436dbc53fefd19169b0
0:9A582C23266B8EA47EB71118A3C040D42B230B2266FECFFE2D3CD390C0922C35,EQCaWCwjJmuOpH63ERijwEDUKyMLImb-z_4tPNOQwJIsNcZW,UQCaWCwjJmuOpH63ERijwEDUKyMLImb-z_4tPNOQwJIsNZuT,bigone,CEX,,bigone,,datalake-test.cex_labels_20241116,,,[],ziga,2024-12-12T10:09:26Z,d54f3df85af38309a650d436dbc53fefd19169b0
0:008BB088E81E38D583826901093567027CC1575EC744AC354FA4EEEC302D166D,EQAAi7CI6B441YOCaQEJNWcCfMFXXsdErDVPpO7sMC0WbSVp,UQAAi7CI6B441YOCaQEJNWcCfMFXXsdErDVPpO7sMC0WbXis,bit.com,CEX,,bit.com,,datalake-test.cex_labels_20241116,,,[],ziga,2024-12-12T10:09:26Z,d54f3df85af38309a650d436dbc53fefd19169b0
0:B496B8F73B469FF06A2D89E62C4D70A103FC228C821537B49DFF092060BC281F,EQC0lrj3O0af8GotieYsTXChA_wijIIVN7Sd_wkgYLwoH07q,UQC0lrj3O0af8GotieYsTXChA_wijIIVN7Sd_wkgYLwoHxMv,gate.io,CEX,,gate.io,,https://tonalytica.redoubt.online/queries/776/source,,,[],ziga,2024-11-25T19:52:44Z,d54f3df85af38309a650d436dbc53fefd19169b0
0:1B84C5A8B28C5EA174C98BD4E5C34F4C1233D5BDD25EF63D270BA2BAAE8D1DD6,EQAbhMWosoxeoXTJi9Tlw09MEjPVvdJe9j0nC6K6ro0d1oL-,UQAbhMWosoxeoXTJi9Tlw09MEjPVvdJe9j0nC6K6ro0d1t87,gate.io,CEX,,gate.io,,,,,[],ohld,2024-12-12T10:02:02Z,d54f3df85af38309a650d436dbc53fefd19169b0
0:E7A8EEE27C256194D5F6CC96272F6DC0995F8369393ADDF9483BA3EC0AB77886,EQDnqO7ifCVhlNX2zJYnL23AmV-DaTk63flIO6PsCrd4hu5l,UQDnqO7ifCVhlNX2zJYnL23AmV-DaTk63flIO6PsCrd4hrOg,bitfree,CEX,,bitfree,,,,,[],ohld,2025-01-01T00:00:01Z,d54f3df85af38309a650d436dbc53fefd19169b0
0:B31535E934DB05BBC220267467903C8108BDABCBC2A06588838B726DDF589EF0,EQCzFTXpNNsFu8IgJnRnkDyBCL2ry8KgZYiDi3Jt31ie8EIQ,UQCzFTXpNNsFu8IgJnRnkDyBCL2ry8KgZYiDi3Jt31ie8B_V,ftx,CEX,,ftx,,datalake-test.cex_labels_20241116,,,[],ziga,2024-12-12T10:09:26Z,d54f3df85af38309a650d436dbc53fefd19169b0
0:6C53CD87CC0D33486DB42C1C7FC03DFAEB2F7B815AFC368AB1AEE567EDDA3F72,EQBsU82HzA0zSG20LBx_wD366y97gVr8NoqxruVn7do_cnrP,UQBsU82HzA0zSG20LBx_wD366y97gVr8NoqxruVn7do_cicK,coinspot,CEX,,coinspot,,datalake-test.cex_labels_20241116,,,[],ziga,2024-12-12T10:09:26Z,d54f3df85af38309a650d436dbc53fefd19169b0
0:DFB5074F2139DBFB1F3E823DDFD7976DA506E7F78175C98C627ED2E840F78606,EQDftQdPITnb-x8-gj3f15dtpQbn94F1yYxiftLoQPeGBizQ,UQDftQdPITnb-x8-gj3f15dtpQbn94F1yYxiftLoQPeGBnEV,fixedfloat,CEX,,fixedfloat,,datalake-test.cex_labels_20241116,,,[],ziga,2024-12-12T10:09:26Z,d54f3df85af38309a650d436dbc53fefd19169b0
0:60DEF37FB0E6F41B18A73C2496D96B25442344864CA0ED97189A6F37E2439C56,EQBg3vN_sOb0GxinPCSW2WslRCNEhkyg7ZcYmm834kOcVomh,UQBg3vN_sOb0GxinPCSW2WslRCNEhkyg7ZcYmm834kOcVtRk,richamster,CEX,,richamster,,datalake-test.cex_labels_20241116,,,[],ziga,2024-12-12T10:09:26Z,d54f3df85af38309a650d436dbc53fefd19169b0
0:6A5A76A1538CF9596590EC3708470649C342624BF92E63A6A7A15254EDEDA904,EQBqWnahU4z5WWWQ7DcIRwZJw0JiS_kuY6anoVJU7e2pBBuP,UQBqWnahU4z5WWWQ7DcIRwZJw0JiS_kuY6anoVJU7e2pBEZK,bitfinex,CEX,,bitfinex,,https://tonalytica.redoubt.online/queries/776/source,,,[],ziga,2024-11-25T19:52:44Z,d54f3df85af38309a650d436dbc53fefd19169b0
0:DD36441BF4AA8A6A6ECFD763EFDE1EB82DD86BDCFB1456B45FF4B73F87657184,EQDdNkQb9KqKam7P12Pv3h64Ldhr3PsUVrRf9Lc_h2VxhKpH,UQDdNkQb9KqKam7P12Pv3h64Ldhr3PsUVrRf9Lc_h2VxhPeC,bitpin,CEX,,bitpin,,ton weekly slides,,,[],ziga,2024-11-25T20:24:29Z,d54f3df85af38309a650d436dbc53fefd19169b0
0:34D02F688A9F539076C57588181A2D78F6F8453DF759CB162E5A61E8E9D0F59A,EQA00C9oip9TkHbFdYgYGi149vhFPfdZyxYuWmHo6dD1mkGd,UQA00C9oip9TkHbFdYgYGi149vhFPfdZyxYuWmHo6dD1mhxY,bitpin,CEX,,bitpin,,,,,[],ohld,2024-12-12T10:02:02Z,d54f3df85af38309a650d436dbc53fefd19169b0
0:C14CE5D772539BE26FDE315A505A1E0514104E76EEF776F0B845E57DF0557DDB,EQDBTOXXclOb4m_eMVpQWh4FFBBOdu73dvC4ReV98FV92x25,UQDBTOXXclOb4m_eMVpQWh4FFBBOdu73dvC4ReV98FV920B8,bitpin,CEX,,bitpin,,datalake-test.cex_labels_20241116,,,[],ziga,2024-12-12T10:09:26Z,d54f3df85af38309a650d436dbc53fefd19169b0
0:FAC8FFCB6F89572A1232D59E91C65909AE408663FD2CEAECD35F35B5E9D670F4,EQD6yP_Lb4lXKhIy1Z6RxlkJrkCGY_0s6uzTXzW16dZw9NMH,UQD6yP_Lb4lXKhIy1Z6RxlkJrkCGY_0s6uzTXzW16dZw9I7C,bitpin,CEX,,bitpin,,datalake-test.cex_labels_20241116,,,[],ziga,2024-12-12T10:09:26Z,d54f3df85af38309a650d436dbc53fefd19169b0
0:3CD5AD54B190A71CAAB984B0F210E3742C7F2147B7E9073377D7C6B470017362,EQA81a1UsZCnHKq5hLDyEON0LH8hR7fpBzN318a0cAFzYktj,UQA81a1UsZCnHKq5hLDyEON0LH8hR7fpBzN318a0cAFzYham,bitrue,CEX,,bitrue,,datalake-test.cex_labels_20241116,,,[],ziga,2024-12-12T10:09:26Z,d54f3df85af38309a650d436dbc53fefd19169b0
0:AD8AFECFACC248996885D8BE6824280F9F3A7E54C2F6080B7971B9F556C280C4,EQCtiv7PrMJImWiF2L5oJCgPnzp-VML2CAt5cbn1VsKAxLiE,UQCtiv7PrMJImWiF2L5oJCgPnzp-VML2CAt5cbn1VsKAxOVB,crypto bot,CEX,,crypto bot,,datalake-test.cex_labels_20241116,,,[],ziga,2024-12-12T10:09:26Z,d54f3df85af38309a650d436dbc53fefd19169b0
0:CA1D9EDEEF40B3A9DBD9082F3767859547C3CE0BF641D09D58E33A3CF06FB309,EQDKHZ7e70CzqdvZCC83Z4WVR8POC_ZB0J1Y4zo88G-zCXmC,UQDKHZ7e70CzqdvZCC83Z4WVR8POC_ZB0J1Y4zo88G-zCSRH,binance,CEX,,binance,,https://tonalytica.redoubt.online/queries/776/source,,,[],ziga,2024-11-25T19:52:44Z,d54f3df85af38309a650d436dbc53fefd19169b0
0:8E91B50381C36DD42ACCDB51F5CB5D96848568B4924F8079B1A5AE7E10F43EDA,EQCOkbUDgcNt1CrM21H1y12WhIVotJJPgHmxpa5-EPQ-2n6g,UQCOkbUDgcNt1CrM21H1y12WhIVotJJPgHmxpa5-EPQ-2iNl,binance,CEX,,binance,,https://tonalytica.redoubt.online/queries/776/source,,,[],ziga,2024-11-25T19:52:44Z,d54f3df85af38309a650d436dbc53fefd19169b0
0:F99B14600AE44D2F12B178E8C6EABD78892AE82C5E45B6898F9DEB7EB203F9C4,EQD5mxRgCuRNLxKxeOjG6r14iSroLF5FtomPnet-sgP5xNJb,UQD5mxRgCuRNLxKxeOjG6r14iSroLF5FtomPnet-sgP5xI-e,binance,CEX,,binance,,https://tonalytica.redoubt.online/queries/776/source,,,[],ziga,2024-11-25T19:52:44Z,d54f3df85af38309a650d436dbc53fefd19169b0
0:85AF78E8D035E920117CDA654615CDF371D464480B629E110D3C5310D85AB362,EQCFr3jo0DXpIBF82mVGFc3zcdRkSAtinhENPFMQ2FqzYqDB,UQCFr3jo0DXpIBF82mVGFc3zcdRkSAtinhENPFMQ2FqzYv0E,huobi,CEX,,huobi,,https://tonalytica.redoubt.online/queries/776/source,,,[],ziga,2024-11-25T19:52:44Z,d54f3df85af38309a650d436dbc53fefd19169b0
0:555F3053E257130374BB831AE0E219E5E5F9EC0CA8F8A0D133369D3D690C64C2,EQBVXzBT4lcTA3S7gxrg4hnl5fnsDKj4oNEzNp09aQxkwj1f,UQBVXzBT4lcTA3S7gxrg4hnl5fnsDKj4oNEzNp09aQxkwmCa,huobi,CEX,,huobi,,https://tonalytica.redoubt.online/queries/776/source,,,[],ziga,2024-11-25T19:52:44Z,d54f3df85af38309a650d436dbc53fefd19169b0
0:DD528505AF15C6E5206BDD8F6C9A3B541F80CA98AE8A5066AB3FF8DE1FF5E678,EQDdUoUFrxXG5SBr3Y9smjtUH4DKmK6KUGarP_jeH_XmeJAP,UQDdUoUFrxXG5SBr3Y9smjtUH4DKmK6KUGarP_jeH_XmeM3K,farhad,CEX,,farhad,,datalake-test.cex_labels_20241116,,,[],ziga,2024-12-12T10:09:26Z,d54f3df85af38309a650d436dbc53fefd19169b0
0:91887059BA56A03790B0696D7A402AC0691DFF62FCD398E813F97D3B2736FA58,EQCRiHBZulagN5CwaW16QCrAaR3_YvzTmOgT-X07Jzb6WLfa,UQCRiHBZulagN5CwaW16QCrAaR3_YvzTmOgT-X07Jzb6WOof,wallet in telegram,CEX,,wallet in telegram,,ton weekly slides,,,[],ziga,2024-11-25T20:24:29Z,d54f3df85af38309a650d436dbc53fefd19169b0
0:1F5806C73D03BBC96EB7EEBF16067F1F2E8E270CFA16D57001AA9EAF7456F008,EQAfWAbHPQO7yW637r8WBn8fLo4nDPoW1XABqp6vdFbwCAb0,UQAfWAbHPQO7yW637r8WBn8fLo4nDPoW1XABqp6vdFbwCFsx,wallet in telegram,CEX,,wallet in telegram,,ton weekly slides,,,[],ziga,2024-11-25T20:24:29Z,d54f3df85af38309a650d436dbc53fefd19169b0
0:CF06C94EFDAE26FAAA1D85092FC4DAEE78EBA09E69C36DAC051C1D8FFDE35F40,EQDPBslO_a4m-qodhQkvxNrueOugnmnDbawFHB2P_eNfQF_w,UQDPBslO_a4m-qodhQkvxNrueOugnmnDbawFHB2P_eNfQAI1,wallet in telegram,CEX,,wallet in telegram,,ton weekly slides,,,[],ziga,2024-11-25T20:24:29Z,d54f3df85af38309a650d436dbc53fefd19169b0
0:97AD93444915089E812238FF10ABE9066D0B03EA3DBA2A8630FB9C9F88AA455C,EQCXrZNESRUInoEiOP8Qq-kGbQsD6j26KoYw-5yfiKpFXPqY,UQCXrZNESRUInoEiOP8Qq-kGbQsD6j26KoYw-5yfiKpFXKdd,wallet in telegram,CEX,,wallet in telegram,,ton weekly slides,,,[],ziga,2024-11-25T20:24:29Z,d54f3df85af38309a650d436dbc53fefd19169b0
0:1B44EC553616B0E4551037038834BDF0BDAA1F0440E10F3331D9841585612A68,EQAbROxVNhaw5FUQNwOINL3wvaofBEDhDzMx2YQVhWEqaHD0,UQAbROxVNhaw5FUQNwOINL3wvaofBEDhDzMx2YQVhWEqaC0x,wallet in telegram,CEX,,wallet in telegram,,datalake-test.cex_labels_20241116,,,[],ziga,2024-12-12T10:09:26Z,d54f3df85af38309a650d436dbc53fefd19169b0
0:23EEF28B6DA5A368D6C0B8028FD5ED47C26758676BC9DB1B5653CAAADC969F91,EQAj7vKLbaWjaNbAuAKP1e1HwmdYZ2vJ2xtWU8qq3JafkfxF,UQAj7vKLbaWjaNbAuAKP1e1HwmdYZ2vJ2xtWU8qq3JafkaGA,cwallet,CEX,,cwallet,,datalake-test.cex_labels_20241116,,,[],ziga,2024-12-12T10:09:26Z,d54f3df85af38309a650d436dbc53fefd19169b0
0:B58C73481F25A280F9705AB3424BE850614D823256263ECFA049FA9FB917720D,EQC1jHNIHyWigPlwWrNCS-hQYU2CMlYmPs-gSfqfuRdyDSWM,UQC1jHNIHyWigPlwWrNCS-hQYU2CMlYmPs-gSfqfuRdyDXhJ,qmall,CEX,,qmall,,datalake-test.cex_labels_20241116,,,[],ziga,2024-12-12T10:09:26Z,d54f3df85af38309a650d436dbc53fefd19169b0
0:34C1E33A72EA1A68B100779913F1F15047D20DA1B588EA7905727C79B60784D1,EQA0weM6cuoaaLEAd5kT8fFQR9INobWI6nkFcnx5tgeE0fC9,UQA0weM6cuoaaLEAd5kT8fFQR9INobWI6nkFcnx5tgeE0a14,okx,CEX,,okx,,https://tonalytica.redoubt.online/queries/776/source,,,[],ziga,2024-11-25T19:52:44Z,d54f3df85af38309a650d436dbc53fefd19169b0
0:762F9E90DB3A2AC7E7BFAE7D8B509315855E9FEE78DCEAA90D2749845FAABB97,EQB2L56Q2zoqx-e_rn2LUJMVhV6f7njc6qkNJ0mEX6q7l22q,UQB2L56Q2zoqx-e_rn2LUJMVhV6f7njc6qkNJ0mEX6q7lzBv,okx,CEX,,okx,,https://tonalytica.redoubt.online/queries/776/source,,,[],ziga,2024-11-25T19:52:44Z,d54f3df85af38309a650d436dbc53fefd19169b0
0:4770FA73C41185869E80D40FCCCCF12F0487B1A206D71B62C4CF21B938F5232A,EQBHcPpzxBGFhp6A1A_MzPEvBIexogbXG2LEzyG5OPUjKriz,UQBHcPpzxBGFhp6A1A_MzPEvBIexogbXG2LEzyG5OPUjKuV2,okx,CEX,,okx,,https://tonalytica.redoubt.online/queries/776/source,,,[],ziga,2024-11-25T19:52:44Z,d54f3df85af38309a650d436dbc53fefd19169b0
0:240F4DC1E372B360B5D5283883FF1EE0E9B67C5110C0EEB1F3EF6F78931A18F9,EQAkD03B43KzYLXVKDiD_x7g6bZ8URDA7rHz7294kxoY-VNX,UQAkD03B43KzYLXVKDiD_x7g6bZ8URDA7rHz7294kxoY-Q6S,okx,CEX,,okx,,https://tonalytica.redoubt.online/queries/776/source,,,[],ziga,2024-11-25T19:52:44Z,d54f3df85af38309a650d436dbc53fefd19169b0
0:F15DB2C62CD86AFF0860D39C491FC73A31395FAFEB5945E644498562260C782E,EQDxXbLGLNhq_whg05xJH8c6MTlfr-tZReZESYViJgx4Lg4_,UQDxXbLGLNhq_whg05xJH8c6MTlfr-tZReZESYViJgx4LlP6,okx,CEX,,okx,,https://tonalytica.redoubt.online/queries/776/source,,,[],ziga,2024-11-25T19:52:44Z,d54f3df85af38309a650d436dbc53fefd19169b0
0:A30A49EC725E9F57244B66AF4C2DA7AB76004B4FCE80D3A34B1CD0C37762ABCE,EQCjCknscl6fVyRLZq9MLaerdgBLT86A06NLHNDDd2Krzote,UQCjCknscl6fVyRLZq9MLaerdgBLT86A06NLHNDDd2Krztab,okx,CEX,,okx,,https://tonalytica.redoubt.online/queries/776/source,,,[],ziga,2024-11-25T19:52:44Z,d54f3df85af38309a650d436dbc53fefd19169b0
0:84BF00B5D68EE4C425066435B63A1B88649E5BEC75ED98CB90E896F2C0EDCA23,EQCEvwC11o7kxCUGZDW2OhuIZJ5b7HXtmMuQ6JbywO3KI9gJ,UQCEvwC11o7kxCUGZDW2OhuIZJ5b7HXtmMuQ6JbywO3KI4XM,okx,CEX,,okx,,https://tonalytica.redoubt.online/queries/776/source,,,[],ziga,2024-11-25T19:52:44Z,d54f3df85af38309a650d436dbc53fefd19169b0
0:B9F4C1E1CB428268D5D2AFF239E6340C92458059FD9761CFFE264DB717612446,EQC59MHhy0KCaNXSr_I55jQMkkWAWf2XYc_-Jk23F2EkRpn4,UQC59MHhy0KCaNXSr_I55jQMkkWAWf2XYc_-Jk23F2EkRsQ9,okx,CEX,,okx,,https://tonalytica.redoubt.online/queries/776/source,,,[],ziga,2024-11-25T19:52:44Z,d54f3df85af38309a650d436dbc53fefd19169b0
0:6CF00F7E28E1FE5F8935569076F8D482764BCF2760C25C22EC5E8FED25843A1C,EQBs8A9-KOH-X4k1VpB2-NSCdkvPJ2DCXCLsXo_tJYQ6HG6q,UQBs8A9-KOH-X4k1VpB2-NSCdkvPJ2DCXCLsXo_tJYQ6HDNv,okx,CEX,,okx,,https://tonalytica.redoubt.online/queries/776/source,,,[],ziga,2024-11-25T19:52:44Z,d54f3df85af38309a650d436dbc53fefd19169b0
0:53B092865C97618ED47EDAF80AA16FCA5BAE4EB5DC6005C01F35C0A2F6352287,EQBTsJKGXJdhjtR-2vgKoW_KW65OtdxgBcAfNcCi9jUihwoo,UQBTsJKGXJdhjtR-2vgKoW_KW65OtdxgBcAfNcCi9jUih1ft,okx,CEX,,okx,,https://tonalytica.redoubt.online/queries/776/source,,,[],ziga,2024-11-25T19:52:44Z,d54f3df85af38309a650d436dbc53fefd19169b0
0:B96335EDECE62C672232506CCCC64D545DCFEB1BCFDD85289B3A763499E339C3,EQC5YzXt7OYsZyIyUGzMxk1UXc_rG8_dhSibOnY0meM5w7aI,UQC5YzXt7OYsZyIyUGzMxk1UXc_rG8_dhSibOnY0meM5w-tN,okx,CEX,,okx,,https://tonalytica.redoubt.online/queries/776/source,,,[],ziga,2024-11-25T19:52:44Z,d54f3df85af38309a650d436dbc53fefd19169b0
0:4BC664788D05C982F58E5AF175C5B425C719FFE6C1CF09B8111C0552A710BBDB,EQBLxmR4jQXJgvWOWvF1xbQlxxn_5sHPCbgRHAVSpxC72xWD,UQBLxmR4jQXJgvWOWvF1xbQlxxn_5sHPCbgRHAVSpxC720hG,okx,CEX,,okx,,https://tonalytica.redoubt.online/queries/776/source,,,[],ziga,2024-11-25T19:52:44Z,d54f3df85af38309a650d436dbc53fefd19169b0
0:C09032E0B01C7AA6EF5F61FB5638D5C130E267B10D5A66394CE0ED877C90051C,EQDAkDLgsBx6pu9fYftWONXBMOJnsQ1aZjlM4O2HfJAFHAzs,UQDAkDLgsBx6pu9fYftWONXBMOJnsQ1aZjlM4O2HfJAFHFEp,okx,CEX,,okx,,https://tonalytica.redoubt.online/queries/776/source,,,[],ziga,2024-11-25T19:52:44Z,d54f3df85af38309a650d436dbc53fefd19169b0
0:6632818BE3FADBBD24F67AF27AAA2126CEB43A8A22CD0B93824D4A9477A0BACC,EQBmMoGL4_rbvST2evJ6qiEmzrQ6iiLNC5OCTUqUd6C6zAFE,UQBmMoGL4_rbvST2evJ6qiEmzrQ6iiLNC5OCTUqUd6C6zFyB,okx,CEX,,okx,,https://tonalytica.redoubt.online/queries/776/source,,,[],ziga,2024-11-25T19:52:44Z,d54f3df85af38309a650d436dbc53fefd19169b0
0:1ABCDFB47B5046E34F5F31F35760386C883D3D8EB7ECA2FB16061F0806483DE3,EQAavN-0e1BG409fMfNXYDhsiD09jrfsovsWBh8IBkg945QK,UQAavN-0e1BG409fMfNXYDhsiD09jrfsovsWBh8IBkg948nP,okx,CEX,,okx,,https://tonalytica.redoubt.online/queries/776/source,,,[],ziga,2024-11-25T19:52:44Z,d54f3df85af38309a650d436dbc53fefd19169b0
0:780B5ECFE7C755CC89FA5FDCBA46B5FB2350B56EA1F557AB081EBF72CA0D0723,EQB4C17P58dVzIn6X9y6RrX7I1C1bqH1V6sIHr9yyg0HIwKK,UQB4C17P58dVzIn6X9y6RrX7I1C1bqH1V6sIHr9yyg0HI19P,okx,CEX,,okx,,https://tonalytica.redoubt.online/queries/776/source,,,[],ziga,2024-11-25T19:52:44Z,d54f3df85af38309a650d436dbc53fefd19169b0
0:AB11F966FE24139D8FB4B5343A742F209F23D0B9F757304D9C7655F7080FFF58,EQCrEflm_iQTnY-0tTQ6dC8gnyPQufdXME2cdlX3CA__WKZp,UQCrEflm_iQTnY-0tTQ6dC8gnyPQufdXME2cdlX3CA__WPus,okx,CEX,,okx,,https://tonalytica.redoubt.online/queries/776/source,,,[],ziga,2024-11-25T19:52:44Z,d54f3df85af38309a650d436dbc53fefd19169b0
0:5F00DECB7DA51881764DC3959CEC60609045F6CA1B89E646BDE49D492705D77F,EQBfAN7LfaUYgXZNw5Wc7GBgkEX2yhuJ5ka95J1JJwXXf4a8,UQBfAN7LfaUYgXZNw5Wc7GBgkEX2yhuJ5ka95J1JJwXXf9t5,okx,CEX,,okx,,https://tonalytica.redoubt.online/queries/776/source,,,[],ziga,2024-11-25T19:52:44Z,d54f3df85af38309a650d436dbc53fefd19169b0
0:F9BDC0DE461C1A2E002FADA9550BBB095C8F9F73668D70C517A9CC7E050F8E5A,EQD5vcDeRhwaLgAvralVC7sJXI-fc2aNcMUXqcx-BQ-OWnOZ,UQD5vcDeRhwaLgAvralVC7sJXI-fc2aNcMUXqcx-BQ-OWi5c,okx,CEX,,okx,,https://tonalytica.redoubt.online/queries/776/source,,,[],ziga,2024-11-25T19:52:44Z,d54f3df85af38309a650d436dbc53fefd19169b0
0:E3847D81CAAEFF8CE8DB080A07F1B68BA0F5D5EC6C61D05E5AF9648D33DFE0C4,EQDjhH2Byq7_jOjbCAoH8baLoPXV7Gxh0F5a-WSNM9_gxNol,UQDjhH2Byq7_jOjbCAoH8baLoPXV7Gxh0F5a-WSNM9_gxIfg,okx,CEX,,okx,,https://tonalytica.redoubt.online/queries/776/source,,,[],ziga,2024-11-25T19:52:44Z,d54f3df85af38309a650d436dbc53fefd19169b0
0:DBF68199773C50EF0C0A8462ABB5CB0C7FE2AB59A7940EF4AEEE58E1AA073A87,EQDb9oGZdzxQ7wwKhGKrtcsMf-KrWaeUDvSu7ljhqgc6hzQV,UQDb9oGZdzxQ7wwKhGKrtcsMf-KrWaeUDvSu7ljhqgc6h2nQ,okx,CEX,,okx,,https://tonalytica.redoubt.online/queries/776/source,,,[],ziga,2024-11-25T19:52:44Z,d54f3df85af38309a650d436dbc53fefd19169b0
0:C1951FF5EFD701A91B014505F6ED22C3C5A27BF96D2C2C512BBFE155D7D76E7D,EQDBlR_179cBqRsBRQX27SLDxaJ7-W0sLFErv-FV19dufYRG,UQDBlR_179cBqRsBRQX27SLDxaJ7-W0sLFErv-FV19dufdmD,okx,CEX,,okx,,https://tonalytica.redoubt.online/queries/776/source,,,[],ziga,2024-11-25T19:52:44Z,d54f3df85af38309a650d436dbc53fefd19169b0
0:67C857F2F891C3E72D243B3C407E7EB72542D66B24675E02742C90C73BE7D843,EQBnyFfy-JHD5y0kOzxAfn63JULWayRnXgJ0LJDHO-fYQ7ce,UQBnyFfy-JHD5y0kOzxAfn63JULWayRnXgJ0LJDHO-fYQ-rb,okx,CEX,,okx,,https://tonalytica.redoubt.online/queries/776/source,,,[],ziga,2024-11-25T19:52:44Z,d54f3df85af38309a650d436dbc53fefd19169b0
0:B93C01ADCF4531EEA2EA6F3B26A90F7592DD9E1979C5C6EBA39B7DC5B6C765AF,EQC5PAGtz0Ux7qLqbzsmqQ91kt2eGXnFxuujm33Ftsdlr0FX,UQC5PAGtz0Ux7qLqbzsmqQ91kt2eGXnFxuujm33FtsdlrxyS,okx,CEX,,okx,,https://tonalytica.redoubt.online/queries/776/source,,,[],ziga,2024-11-25T19:52:44Z,d54f3df85af38309a650d436dbc53fefd19169b0
0:E806567312D935037CD0F85E8E01E59F2E9244FEFB4FAD513AC8402618C188B9,EQDoBlZzEtk1A3zQ-F6OAeWfLpJE_vtPrVE6yEAmGMGIuRfO,UQDoBlZzEtk1A3zQ-F6OAeWfLpJE_vtPrVE6yEAmGMGIuUoL,okx,CEX,,okx,,https://tonalytica.redoubt.online/queries/776/source,,,[],ziga,2024-11-25T19:52:44Z,d54f3df85af38309a650d436dbc53fefd19169b0
0:E7E86DA08742ED933434FFEB8F08A63C7E100EE842E25F599A9CBF0891574A6C,EQDn6G2gh0LtkzQ0_-uPCKY8fhAO6ELiX1manL8IkVdKbGzr,UQDn6G2gh0LtkzQ0_-uPCKY8fhAO6ELiX1manL8IkVdKbDEu,okx,CEX,,okx,,https://tonalytica.redoubt.online/queries/776/source,,,[],ziga,2024-11-25T19:52:44Z,d54f3df85af38309a650d436dbc53fefd19169b0
0:969B4FEB654BC036BF351C8B93968030B3144CE387B25FF869FDE54276A9F517,EQCWm0_rZUvANr81HIuTloAwsxRM44eyX_hp_eVCdqn1F_pa,UQCWm0_rZUvANr81HIuTloAwsxRM44eyX_hp_eVCdqn1F6ef,okx,CEX,,okx,,https://tonalytica.redoubt.online/queries/776/source,,,[],ziga,2024-11-25T19:52:44Z,d54f3df85af38309a650d436dbc53fefd19169b0
0:854EC4521EFD52AD43BCF1988E4C44EBDF9A26AD18FA51ABFDB685FC3B348A5C,EQCFTsRSHv1SrUO88ZiOTETr35omrRj6Uav9toX8OzSKXGkS,UQCFTsRSHv1SrUO88ZiOTETr35omrRj6Uav9toX8OzSKXDTX,okx,CEX,,okx,,https://tonalytica.redoubt.online/queries/776/source,,,[],ziga,2024-11-25T19:52:44Z,d54f3df85af38309a650d436dbc53fefd19169b0
0:0568A7D3EEC8B481DE2D31D8E24CBDB4839693512783CE21735F498F9BEC584D,EQAFaKfT7si0gd4tMdjiTL20g5aTUSeDziFzX0mPm-xYTerI,UQAFaKfT7si0gd4tMdjiTL20g5aTUSeDziFzX0mPm-xYTbcN,okx,CEX,,okx,,https://tonalytica.redoubt.online/queries/776/source,,,[],ziga,2024-11-25T19:52:44Z,d54f3df85af38309a650d436dbc53fefd19169b0
0:0AA7F2AF349460304F3936DFD2B8890E28B423A776D2292CA4B38402AD2B3160,EQAKp_KvNJRgME85Nt_SuIkOKLQjp3bSKSyks4QCrSsxYPwz,UQAKp_KvNJRgME85Nt_SuIkOKLQjp3bSKSyks4QCrSsxYKH2,okx,CEX,,okx,,https://tonalytica.redoubt.online/queries/776/source,,,[],ziga,2024-11-25T19:52:44Z,d54f3df85af38309a650d436dbc53fefd19169b0
0:9343D91D895DE991D40275FDF89CE066C25C20D2EB04F597946AC71AF9C0F4C4,EQCTQ9kdiV3pkdQCdf34nOBmwlwg0usE9ZeUasca-cD0xPgE,UQCTQ9kdiV3pkdQCdf34nOBmwlwg0usE9ZeUasca-cD0xKXB,okx,CEX,,okx,,https://tonalytica.redoubt.online/queries/776/source,,,[],ziga,2024-11-25T19:52:44Z,d54f3df85af38309a650d436dbc53fefd19169b0
0:6B6CC68ACAA47D0923AB3B69ED4E648CEDD5005D2D4CB23918021A25149A85C6,EQBrbMaKyqR9CSOrO2ntTmSM7dUAXS1MsjkYAholFJqFxtX6,UQBrbMaKyqR9CSOrO2ntTmSM7dUAXS1MsjkYAholFJqFxog_,okx,CEX,,okx,,https://tonalytica.redoubt.online/queries/776/source,,,[],ziga,2024-11-25T19:52:44Z,d54f3df85af38309a650d436dbc53fefd19169b0
0:B46B5F14862D40AB1BA84AEAB2AAB6136A9F1C7346C144D6AA07A6D977547C87,EQC0a18Uhi1AqxuoSuqyqrYTap8cc0bBRNaqB6bZd1R8h9P-,UQC0a18Uhi1AqxuoSuqyqrYTap8cc0bBRNaqB6bZd1R8h447,okx,CEX,,okx,,https://tonalytica.redoubt.online/queries/776/source,,,[],ziga,2024-11-25T19:52:44Z,d54f3df85af38309a650d436dbc53fefd19169b0
0:54C4D4D9576C3C3CAA28B0702E5C9598440DB94D7AEF4E5BEDD2F17EA7A86C74,EQBUxNTZV2w8PKoosHAuXJWYRA25TXrvTlvt0vF-p6hsdDQS,UQBUxNTZV2w8PKoosHAuXJWYRA25TXrvTlvt0vF-p6hsdGnX,okx,CEX,,okx,,https://tonalytica.redoubt.online/queries/776/source,,,[],ziga,2024-11-25T19:52:44Z,d54f3df85af38309a650d436dbc53fefd19169b0
0:9775DCCA0A4103CC5C8CA0FEAB994AA4F674137BE31F9F2C37EB0F13C73422FC,EQCXddzKCkEDzFyMoP6rmUqk9nQTe-Mfnyw36w8TxzQi_MMF,UQCXddzKCkEDzFyMoP6rmUqk9nQTe-Mfnyw36w8TxzQi_J7A,okx,CEX,,okx,,https://tonalytica.redoubt.online/queries/776/source,,,[],ziga,2024-11-25T19:52:44Z,d54f3df85af38309a650d436dbc53fefd19169b0
0:E7755700C07BEC0EF9778DE11A8E99D5A818A274A7254A63842F03B349235E2B,EQDndVcAwHvsDvl3jeEajpnVqBiidKclSmOELwOzSSNeK-9e,UQDndVcAwHvsDvl3jeEajpnVqBiidKclSmOELwOzSSNeK7Kb,okx,CEX,,okx,,https://tonalytica.redoubt.online/queries/776/source,,,[],ziga,2024-11-25T19:52:44Z,d54f3df85af38309a650d436dbc53fefd19169b0
0:3C135DB2B34625DA6EF19C32EBF879F576ADAD1CC2E9EEF0D433A2539F5539B8,EQA8E12ys0Yl2m7xnDLr-Hn1dq2tHMLp7vDUM6JTn1U5uP5n,UQA8E12ys0Yl2m7xnDLr-Hn1dq2tHMLp7vDUM6JTn1U5uKOi,okx,CEX,,okx,,https://tonalytica.redoubt.online/queries/776/source,,,[],ziga,2024-11-25T19:52:44Z,d54f3df85af38309a650d436dbc53fefd19169b0
0:020F592FA5B169BB19C9AA7C03766C27F8E191E659C08E43F0E511EB48D7A31E,EQACD1kvpbFpuxnJqnwDdmwn-OGR5lnAjkPw5RHrSNejHtZU,UQACD1kvpbFpuxnJqnwDdmwn-OGR5lnAjkPw5RHrSNejHouR,okx,CEX,,okx,,https://tonalytica.redoubt.online/queries/776/source,,,[],ziga,2024-11-25T19:52:44Z,d54f3df85af38309a650d436dbc53fefd19169b0
0:F15FAB6B6E05FAED5A8784130F96D57AA43ABC3D34367116075BA5E0FAB075B6,EQDxX6trbgX67VqHhBMPltV6pDq8PTQ2cRYHW6Xg-rB1tl9a,UQDxX6trbgX67VqHhBMPltV6pDq8PTQ2cRYHW6Xg-rB1tgKf,okx,CEX,,okx,,https://tonalytica.redoubt.online/queries/776/source,,,[],ziga,2024-11-25T19:52:44Z,d54f3df85af38309a650d436dbc53fefd19169b0
0:9520FF4741DF664F18CC57FF72F00F6540DE07BCD5F45E7292594CB4B9DEBF5D,EQCVIP9HQd9mTxjMV_9y8A9lQN4HvNX0XnKSWUy0ud6_XQGx,UQCVIP9HQd9mTxjMV_9y8A9lQN4HvNX0XnKSWUy0ud6_XVx0,okx,CEX,,okx,,https://tonalytica.redoubt.online/queries/776/source,,,[],ziga,2024-11-25T19:52:44Z,d54f3df85af38309a650d436dbc53fefd19169b0
0:46071C4A032C647B264FB349ECE6E57617F26F8FB95FD8671731B6FB551DF0F4,EQBGBxxKAyxkeyZPs0ns5uV2F_Jvj7lf2GcXMbb7VR3w9Pc9,UQBGBxxKAyxkeyZPs0ns5uV2F_Jvj7lf2GcXMbb7VR3w9Kr4,okx,CEX,,okx,,https://tonalytica.redoubt.online/queries/776/source,,,[],ziga,2024-11-25T19:52:44Z,d54f3df85af38309a650d436dbc53fefd19169b0
0:73CBCA7C85FB9C97F8DB36CFFD95980D29B8E4BBE3A579DACBFC4B7ED43C8DA0,EQBzy8p8hfucl_jbNs_9lZgNKbjku-OledrL_Et-1DyNoAw9,UQBzy8p8hfucl_jbNs_9lZgNKbjku-OledrL_Et-1DyNoFH4,okx,CEX,,okx,,https://tonalytica.redoubt.online/queries/776/source,,,[],ziga,2024-11-25T19:52:44Z,d54f3df85af38309a650d436dbc53fefd19169b0
0:7F2E84C723D8B6B6B1AACF810C8C26AB23C22022B464B87104B2D3065B0EA70B,EQB_LoTHI9i2trGqz4EMjCarI8IgIrRkuHEEstMGWw6nC3Nw,UQB_LoTHI9i2trGqz4EMjCarI8IgIrRkuHEEstMGWw6nCy61,okx,CEX,,okx,,datalake-test.cex_labels_20241116,,,[],ziga,2024-12-12T10:09:26Z,d54f3df85af38309a650d436dbc53fefd19169b0
0:0338DEF34B84C6EE9134A04AB1601450BE446340A37AE259DE57CB37BDB590CD,EQADON7zS4TG7pE0oEqxYBRQvkRjQKN64lneV8s3vbWQzWUO,UQADON7zS4TG7pE0oEqxYBRQvkRjQKN64lneV8s3vbWQzTjL,okx,CEX,,okx,,datalake-test.cex_labels_20241116,,,[],ziga,2024-12-12T10:09:26Z,d54f3df85af38309a650d436dbc53fefd19169b0
0:24DA1E7B8DA901E5B3DD0F98C397FEB6E5A5EA483195A8B6BD0682CF2C5327AE,EQAk2h57jakB5bPdD5jDl_625aXqSDGVqLa9BoLPLFMnrisV,UQAk2h57jakB5bPdD5jDl_625aXqSDGVqLa9BoLPLFMnrnbQ,okx,CEX,,okx,,datalake-test.cex_labels_20241116,,,[],ziga,2024-12-12T10:09:26Z,d54f3df85af38309a650d436dbc53fefd19169b0
0:9B9B739DE2527AE72D21083F5198D710C7288453B4733E57ECADB2E189AC829C,EQCbm3Od4lJ65y0hCD9RmNcQxyiEU7RzPlfsrbLhiayCnNuU,UQCbm3Od4lJ65y0hCD9RmNcQxyiEU7RzPlfsrbLhiayCnIZR,okx,CEX,,okx,,datalake-test.cex_labels_20241116,,,[],ziga,2024-12-12T10:09:26Z,d54f3df85af38309a650d436dbc53fefd19169b0
0:A2FACA7ADFEBD5C5970108D1F79065CEF32B0C143FB13489066B684CDD7EE95C,EQCi-sp63-vVxZcBCNH3kGXO8ysMFD-xNIkGa2hM3X7pXHfC,UQCi-sp63-vVxZcBCNH3kGXO8ysMFD-xNIkGa2hM3X7pXCoH,bitmart,CEX,,bitmart,,datalake-test.cex_labels_20241116,,,[],ziga,2024-12-12T10:09:26Z,d54f3df85af38309a650d436dbc53fefd19169b0
0:2C54797319837B4C6D014FC991C1A8D4294DFD4D6CEC4937E370F1F27DB0423F,EQAsVHlzGYN7TG0BT8mRwajUKU39TWzsSTfjcPHyfbBCPyRS,UQAsVHlzGYN7TG0BT8mRwajUKU39TWzsSTfjcPHyfbBCP3mX,bitforex,CEX,,bitforex,,datalake-test.cex_labels_20241116,,,[],ziga,2024-12-12T10:09:26Z,d54f3df85af38309a650d436dbc53fefd19169b0
0:C61D67A1DBD45F591E10EDAB79D0493ED54598DE7CFAFC2DD309D49892541D7E,EQDGHWeh29RfWR4Q7at50Ek-1UWY3nz6_C3TCdSYklQdfoL5,UQDGHWeh29RfWR4Q7at50Ek-1UWY3nz6_C3TCdSYklQdft88,avanchange,CEX,,avanchange,,datalake-test.cex_labels_20241116,,,[],ziga,2024-12-12T10:09:26Z,d54f3df85af38309a650d436dbc53fefd19169b0
0:A1376E8BF9F266EC7C6B11CE6E5CD02A9BDA363B9EA888A2E239D2383572BC9A,EQChN26L-fJm7HxrEc5uXNAqm9o2O56oiKLiOdI4NXK8mm96,UQChN26L-fJm7HxrEc5uXNAqm9o2O56oiKLiOdI4NXK8mjK_,avanchange,CEX,,avanchange,,datalake-test.cex_labels_20241116,,,[],ziga,2024-12-12T10:09:26Z,d54f3df85af38309a650d436dbc53fefd19169b0
0:6CB01E7DF63F7DA1C428D4BB460891B1BBCC5D7A6F91805C82036CCF967A5474,EQBssB599j99ocQo1LtGCJGxu8xdem-RgFyCA2zPlnpUdKIT,UQBssB599j99ocQo1LtGCJGxu8xdem-RgFyCA2zPlnpUdP_W,avanchange,CEX,,avanchange,,datalake-test.cex_labels_20241116,,,[],ziga,2024-12-12T10:09:26Z,d54f3df85af38309a650d436dbc53fefd19169b0
0:E7A0127FB4BB658C4BCAD2ED15E746A9C8CF146CF60FDC1C8159CDDE80E88C75,EQDnoBJ_tLtljEvK0u0V50apyM8UbPYP3ByBWc3egOiMdTGV,UQDnoBJ_tLtljEvK0u0V50apyM8UbPYP3ByBWc3egOiMdWxQ,avanchange,CEX,,avanchange,,datalake-test.cex_labels_20241116,,,[],ziga,2024-12-12T10:09:26Z,d54f3df85af38309a650d436dbc53fefd19169b0
0:2B6F3CDA567C385F0645486F3C665A451F56B2969D1BE57D86EB77C6077A81D1,EQArbzzaVnw4XwZFSG88ZlpFH1aylp0b5X2G63fGB3qB0fjP,UQArbzzaVnw4XwZFSG88ZlpFH1aylp0b5X2G63fGB3qB0aUK,bittime,CEX,,bittime,,datalake-test.cex_labels_20241116,,,[],ziga,2024-12-12T10:09:26Z,d54f3df85af38309a650d436dbc53fefd19169b0
0:6E814E6450E8C578067BB656298FB4D01397DD15018D7F34DC369EABA4C2111C,EQBugU5kUOjFeAZ7tlYpj7TQE5fdFQGNfzTcNp6rpMIRHLwm,UQBugU5kUOjFeAZ7tlYpj7TQE5fdFQGNfzTcNp6rpMIRHOHj,wallet bot,CEX,,wallet bot,,datalake-test.cex_labels_20241116,,,[],ziga,2024-12-12T10:09:26Z,d54f3df85af38309a650d436dbc53fefd19169b0
0:436A76C2794A88E3FBFEC6B9C0374FC8DB046F10868B835420D9937973A665D4,EQBDanbCeUqI4_v-xrnAN0_I2wRvEIaLg1Qg2ZN5c6Zl1KOh,UQBDanbCeUqI4_v-xrnAN0_I2wRvEIaLg1Qg2ZN5c6Zl1P5k,wallet bot,CEX,,wallet bot,,datalake-test.cex_labels_20241116,,,[],ziga,2024-12-12T10:09:26Z,d54f3df85af38309a650d436dbc53fefd19169b0
0:DDDCD3CDAD60AF4C0D69389F567AD51D0C263FA4968D655AB424C69AADAF9322,EQDd3NPNrWCvTA1pOJ9WetUdDCY_pJaNZVq0JMaara-TIp90,UQDd3NPNrWCvTA1pOJ9WetUdDCY_pJaNZVq0JMaara-TIsKx,wallet bot,CEX,,wallet bot,,datalake-test.cex_labels_20241116,,,[],ziga,2024-12-12T10:09:26Z,d54f3df85af38309a650d436dbc53fefd19169b0
0:A14B1F452385B2BB984AD2C4441E1D23CAE071FDFC096DFBA53EBBA3B6FF1D10,EQChSx9FI4Wyu5hK0sREHh0jyuBx_fwJbfulPrujtv8dENct,UQChSx9FI4Wyu5hK0sREHh0jyuBx_fwJbfulPrujtv8dEIro,lbank.info,CEX,,lbank,,datalake-test.cex_labels_20241116,,,[],ziga,2024-12-12T10:09:26Z,d54f3df85af38309a650d436dbc53fefd19169b0
0:1C7BD690F4F93DE8B93DB5790129DAB65926C6E1FC9B57380089DB5529516630,EQAce9aQ9Pk96Lk9tXkBKdq2WSbG4fybVzgAidtVKVFmMC1S,UQAce9aQ9Pk96Lk9tXkBKdq2WSbG4fybVzgAidtVKVFmMHCX,mexc,CEX,,mexc,,https://tonalytica.redoubt.online/queries/776/source,,,[],ziga,2024-11-25T19:52:44Z,d54f3df85af38309a650d436dbc53fefd19169b0
0:57EB74407604A19F7E04005315EF70AEB7B675E6551977586756F6BAF12125EE,EQBX63RAdgShn34EAFMV73Cut7Z15lUZd1hnVva68SEl7sxi,UQBX63RAdgShn34EAFMV73Cut7Z15lUZd1hnVva68SEl7pGn,mexc,CEX,,mexc,,https://tonalytica.redoubt.online/queries/776/source,,,[],ziga,2024-11-25T19:52:44Z,d54f3df85af38309a650d436dbc53fefd19169b0
0:02B858E1C22CCE1A3AD9ED50E9495070321F308DC4B08924F1DDBDD81E2237DF,EQACuFjhwizOGjrZ7VDpSVBwMh8wjcSwiSTx3b3YHiI339nN,UQACuFjhwizOGjrZ7VDpSVBwMh8wjcSwiSTx3b3YHiI334QI,mexc,CEX,,mexc,,https://tonalytica.redoubt.online/queries/776/source,,,[],ziga,2024-11-25T19:52:44Z,d54f3df85af38309a650d436dbc53fefd19169b0
0:444A7A5B43A6037041E79471A58B1924E57C6A3AFF047D90D30677F79458751D,EQBESnpbQ6YDcEHnlHGlixkk5XxqOv8EfZDTBnf3lFh1HaDZ,UQBESnpbQ6YDcEHnlHGlixkk5XxqOv8EfZDTBnf3lFh1Hf0c,mexc,CEX,,mexc,,https://tonalytica.redoubt.online/queries/776/source,,,[],ziga,2024-11-25T19:52:44Z,d54f3df85af38309a650d436dbc53fefd19169b0
0:0949F6A3F2C062690EC6BB015F1FC9A82B1EEBF03F3BC2AC8B1215A87E77DFC7,EQAJSfaj8sBiaQ7GuwFfH8moKx7r8D87wqyLEhWofnffx4Hq,UQAJSfaj8sBiaQ7GuwFfH8moKx7r8D87wqyLEhWofnffx9wv,mexc,CEX,,mexc,,https://tonalytica.redoubt.online/queries/776/source,,,[],ziga,2024-11-25T19:52:44Z,d54f3df85af38309a650d436dbc53fefd19169b0
0:D887D0E2D1C4FC4126E71C970D33AB1896940000EAE703BB1AB6CECC830777E3,EQDYh9Di0cT8QSbnHJcNM6sYlpQAAOrnA7sats7Mgwd3497j,UQDYh9Di0cT8QSbnHJcNM6sYlpQAAOrnA7sats7Mgwd344Mm,mexc,CEX,,mexc,,,,,[],ohld,2024-12-12T10:02:02Z,d54f3df85af38309a650d436dbc53fefd19169b0
0:60FF0B28E2B3839BEF250A81BE9F2E78A6265B980EC5D24DF4E44BBFF2C3FB25,EQBg_wso4rODm-8lCoG-ny54piZbmA7F0k305Eu_8sP7JQSC,UQBg_wso4rODm-8lCoG-ny54piZbmA7F0k305Eu_8sP7JVlH,tidex,CEX,,tidex,,datalake-test.cex_labels_20241116,,,[],ziga,2024-12-12T10:09:26Z,d54f3df85af38309a650d436dbc53fefd19169b0
0:B37E57033DB21D10B950E6143B658C10C3BF425BD193025960AEF7F22DBCF4FC,EQCzflcDPbIdELlQ5hQ7ZYwQw79CW9GTAllgrvfyLbz0_OZs,UQCzflcDPbIdELlQ5hQ7ZYwQw79CW9GTAllgrvfyLbz0_Lup,kucoin,CEX,,kucoin,,https://tonalytica.redoubt.online/queries/776/source,,,[],ziga,2024-11-25T19:52:44Z,d54f3df85af38309a650d436dbc53fefd19169b0
0:0E1550FA36F2BEDBF39EF5164ED50FA0EEBD547473BB977ADEAC5A86F6E2701B,EQAOFVD6NvK-2_Oe9RZO1Q-g7r1UdHO7l3rerFqG9uJwG_id,UQAOFVD6NvK-2_Oe9RZO1Q-g7r1UdHO7l3rerFqG9uJwG6VY,kucoin,CEX,,kucoin,,https://tonalytica.redoubt.online/queries/776/source,,,[],ziga,2024-11-25T19:52:44Z,d54f3df85af38309a650d436dbc53fefd19169b0
0:888EAFE733AED883634ECD43BAFCCF94E15C98E24394565D01B773223C412079,EQCIjq_nM67Yg2NOzUO6_M-U4VyY4kOUVl0Bt3MiPEEgeYOS,UQCIjq_nM67Yg2NOzUO6_M-U4VyY4kOUVl0Bt3MiPEEged5X,kucoin,CEX,,kucoin,,https://tonalytica.redoubt.online/queries/776/source,,,[],ziga,2024-11-25T19:52:44Z,d54f3df85af38309a650d436dbc53fefd19169b0
0:80D4123841167CA989AC912443CC99A4B9C1A87584536427FF6FD85C92395AE9,EQCA1BI4QRZ8qYmskSRDzJmkucGodYRTZCf_b9hckjla6dZl,UQCA1BI4QRZ8qYmskSRDzJmkucGodYRTZCf_b9hckjla6Yug,kucoin,CEX,,kucoin,,https://tonalytica.redoubt.online/queries/776/source,,,[],ziga,2024-11-25T19:52:44Z,d54f3df85af38309a650d436dbc53fefd19169b0
0:50765F5261424F4709806EDB18B12DA69205530ADFD5F981EA4FE155EB4383AF,EQBQdl9SYUJPRwmAbtsYsS2mkgVTCt_V-YHqT-FV60ODr5R-,UQBQdl9SYUJPRwmAbtsYsS2mkgVTCt_V-YHqT-FV60ODr8m7,kucoin,CEX,,kucoin,,https://tonalytica.redoubt.online/queries/776/source,,,[],ziga,2024-11-25T19:52:44Z,d54f3df85af38309a650d436dbc53fefd19169b0
0:BD37904AFB8E287B28B0842D2AE1AA6746B4ECC275C38531136E18602C02EF5D,EQC9N5BK-44oeyiwhC0q4apnRrTswnXDhTETbhhgLALvXUIu,UQC9N5BK-44oeyiwhC0q4apnRrTswnXDhTETbhhgLALvXR_r,kucoin,CEX,,kucoin,,https://tonalytica.redoubt.online/queries/776/source,,,[],ziga,2024-11-25T19:52:44Z,d54f3df85af38309a650d436dbc53fefd19169b0
0:086E839ED10F2139348B776768B23729D2C44F294C9EBF6E3328BE63E2DDB375,EQAIboOe0Q8hOTSLd2dosjcp0sRPKUyev24zKL5j4t2zdUh7,UQAIboOe0Q8hOTSLd2dosjcp0sRPKUyev24zKL5j4t2zdRW-,kucoin,CEX,,kucoin,,https://tonalytica.redoubt.online/queries/776/source,,,[],ziga,2024-11-25T19:52:44Z,d54f3df85af38309a650d436dbc53fefd19169b0
0:730021372B668433EB74EE05AAC169B54063C3D8C3D27A8D5942C2A7EB2CE15B,EQBzACE3K2aEM-t07gWqwWm1QGPD2MPSeo1ZQsKn6yzhW-wx,UQBzACE3K2aEM-t07gWqwWm1QGPD2MPSeo1ZQsKn6yzhW7H0,kucoin,CEX,,kucoin,,https://tonalytica.redoubt.online/queries/776/source,,,[],ziga,2024-11-25T19:52:44Z,d54f3df85af38309a650d436dbc53fefd19169b0
0:2EF40B4072DFAB14E32E99B521DF32DA13D1503279985918B40BEFBB5083837B,EQAu9AtAct-rFOMumbUh3zLaE9FQMnmYWRi0C--7UIODe4mJ,UQAu9AtAct-rFOMumbUh3zLaE9FQMnmYWRi0C--7UIODe9RM,kucoin,CEX,,kucoin,,https://tonalytica.redoubt.online/queries/776/source,,,[],ziga,2024-11-25T19:52:44Z,d54f3df85af38309a650d436dbc53fefd19169b0
0:07CE60B7E5F255A88C3707F3FBC79E2CF924ED6B4B7D09C6324F0BA2338A48FA,EQAHzmC35fJVqIw3B_P7x54s-STta0t9CcYyTwuiM4pI-oPB,UQAHzmC35fJVqIw3B_P7x54s-STta0t9CcYyTwuiM4pI-t4E,kucoin,CEX,,kucoin,,https://tonalytica.redoubt.online/queries/776/source,,,[],ziga,2024-11-25T19:52:44Z,d54f3df85af38309a650d436dbc53fefd19169b0
0:6F53CA637D384DDB7B3E38E1195D7ADED8F78D06CBC96E7959DD169CCC165135,EQBvU8pjfThN23s-OOEZXXre2PeNBsvJbnlZ3RaczBZRNSyg,UQBvU8pjfThN23s-OOEZXXre2PeNBsvJbnlZ3RaczBZRNXFl,kucoin,CEX,,kucoin,,https://tonalytica.redoubt.online/queries/776/source,,,[],ziga,2024-11-25T19:52:44Z,d54f3df85af38309a650d436dbc53fefd19169b0
0:FAFF29C914EB0CD6AC32D63FE87AA0FE2126E813E2E4E2BAF8F5D67809FBF016,EQD6_ynJFOsM1qwy1j_oeqD-ISboE-Lk4rr49dZ4CfvwFosp,UQD6_ynJFOsM1qwy1j_oeqD-ISboE-Lk4rr49dZ4CfvwFtbs,kucoin,CEX,,kucoin,,https://tonalytica.redoubt.online/queries/776/source,,,[],ziga,2024-11-25T19:52:44Z,d54f3df85af38309a650d436dbc53fefd19169b0
0:CA6E8F2A3DFC875B8673D8677F3818C4B8C02D1AA481A86A0C61BD09F8269F1D,EQDKbo8qPfyHW4Zz2Gd_OBjEuMAtGqSBqGoMYb0J-CafHZ5O,UQDKbo8qPfyHW4Zz2Gd_OBjEuMAtGqSBqGoMYb0J-CafHcOL,foxbit,CEX,,foxbit,,datalake-test.cex_labels_20241116,,,[],ziga,2024-12-12T10:09:26Z,d54f3df85af38309a650d436dbc53fefd19169b0
0:E1D0815EDCCE61056038E1B2CE2C4B1999FEFFF1C8E8611F02D7468A03316AD6,EQDh0IFe3M5hBWA44bLOLEsZmf7_8cjoYR8C10aKAzFq1l3r,UQDh0IFe3M5hBWA44bLOLEsZmf7_8cjoYR8C10aKAzFq1gAu,bfinance,CEX,,bfinance,,datalake-test.cex_labels_20241116,,,['crypto-card'],ziga,2024-12-12T10:09:26Z,d54f3df85af38309a650d436dbc53fefd19169b0
0:7994848C1FCBCBC57A6A5A987B66EB424B8B54E10759B6B514A66B600C2B0EEF,EQB5lISMH8vLxXpqWph7ZutCS4tU4QdZtrUUpmtgDCsO73JR,UQB5lISMH8vLxXpqWph7ZutCS4tU4QdZtrUUpmtgDCsO7y-U,exmo,CEX,,exmo,,datalake-test.cex_labels_20241116,,,[],ziga,2024-12-12T10:09:26Z,d54f3df85af38309a650d436dbc53fefd19169b0
0:8D195793BAAD9A08C46DC353AEBE999341DABD07721B9725F19E18ABC3D10D92,EQCNGVeTuq2aCMRtw1OuvpmTQdq9B3IblyXxnhirw9ENkhLa,UQCNGVeTuq2aCMRtw1OuvpmTQdq9B3IblyXxnhirw9ENkk8f,exmo,CEX,,exmo,,datalake-test.cex_labels_20241116,,,[],ziga,2024-12-12T10:09:26Z,d54f3df85af38309a650d436dbc53fefd19169b0
0:0130C77346E9ED82DF677D107AD6A775C11F9C18F6A05C0DD17906B355850DAD,EQABMMdzRuntgt9nfRB61qd1wR-cGPagXA3ReQazVYUNrT7p,UQABMMdzRuntgt9nfRB61qd1wR-cGPagXA3ReQazVYUNrWMs,exmo,CEX,,exmo,,datalake-test.cex_labels_20241116,,,[],ziga,2024-12-12T10:09:26Z,d54f3df85af38309a650d436dbc53fefd19169b0
0:26AB8AE763A3A7C3067D882B7B01CD5D37254CB8768F57B6A47C00028EFFC7B8,EQAmq4rnY6OnwwZ9iCt7Ac1dNyVMuHaPV7akfAACjv_HuO5H,UQAmq4rnY6OnwwZ9iCt7Ac1dNyVMuHaPV7akfAACjv_HuLOC,exmo,CEX,,exmo,,datalake-test.cex_labels_20241116,,,[],ziga,2024-12-12T10:09:26Z,d54f3df85af38309a650d436dbc53fefd19169b0
0:242814E4D4DB911FDC2ECB9A8915EB1F0A864CBD95DAD8D57D9827ADDEDDE777,EQAkKBTk1NuRH9wuy5qJFesfCoZMvZXa2NV9mCet3t3ndwkH,UQAkKBTk1NuRH9wuy5qJFesfCoZMvZXa2NV9mCet3t3nd1TC,bitget,CEX,,bitget,,https://tonalytica.redoubt.online/queries/776/source,,,[],ziga,2024-11-25T19:52:44Z,d54f3df85af38309a650d436dbc53fefd19169b0
0:C9959A997E1D4E4383D8DB37B86D2101CE78DCF1F1B3904D9888FE572EF0EFD4,EQDJlZqZfh1OQ4PY2ze4bSEBznjc8fGzkE2YiP5XLvDv1M6u,UQDJlZqZfh1OQ4PY2ze4bSEBznjc8fGzkE2YiP5XLvDv1JNr,bitget,CEX,,bitget,,https://tonalytica.redoubt.online/queries/776/source,,,[],ziga,2024-11-25T19:52:44Z,d54f3df85af38309a650d436dbc53fefd19169b0
0:A74688BDE51F632D5ACF38DC5358430C0AE2251C1B186636195B9270B6879C6D,EQCnRoi95R9jLVrPONxTWEMMCuIlHBsYZjYZW5JwtoecbRl6,UQCnRoi95R9jLVrPONxTWEMMCuIlHBsYZjYZW5JwtoecbUS_,bitget,CEX,,bitget,,https://tonalytica.redoubt.online/queries/776/source,,,[],ziga,2024-11-25T19:52:44Z,d54f3df85af38309a650d436dbc53fefd19169b0
0:CDF7F0D7C09036F064272E3C429ED570BE49EF29EB3A735B64BBC17915073732,EQDN9_DXwJA28GQnLjxCntVwvknvKes6c1tku8F5FQc3MkZo,UQDN9_DXwJA28GQnLjxCntVwvknvKes6c1tku8F5FQc3Mhut,bitget,CEX,,bitget,,https://tonalytica.redoubt.online/queries/776/source,,,[],ziga,2024-11-25T19:52:44Z,d54f3df85af38309a650d436dbc53fefd19169b0
0:1797A5C4C50A2B312CE9927FF6F12EFD3B0B58FF311445118C2D2E64312B5D79,EQAXl6XExQorMSzpkn_28S79OwtY_zEURRGMLS5kMStdeQng,UQAXl6XExQorMSzpkn_28S79OwtY_zEURRGMLS5kMStdeVQl,bitget,CEX,,bitget,,datalake-test.cex_labels_20241116,,,[],ziga,2024-12-12T10:09:26Z,d54f3df85af38309a650d436dbc53fefd19169b0
0:336502FAF83EF5B532D315BA71450B661C90E83FCE64D8BC1FD2BF642F3555D9,EQAzZQL6-D71tTLTFbpxRQtmHJDoP85k2Lwf0r9kLzVV2VRy,UQAzZQL6-D71tTLTFbpxRQtmHJDoP85k2Lwf0r9kLzVV2Qm3,bitget,CEX,,bitget,,datalake-test.cex_labels_20241116,,,[],ziga,2024-12-12T10:09:26Z,d54f3df85af38309a650d436dbc53fefd19169b0
0:6083005B354AB1C4785AA8CE8293EE5C9C182E9248F27E9C9074F35C16342083,EQBggwBbNUqxxHhaqM6Ck-5cnBgukkjyfpyQdPNcFjQggwrJ,UQBggwBbNUqxxHhaqM6Ck-5cnBgukkjyfpyQdPNcFjQgg1cM,bitget,CEX,,bitget,,datalake-test.cex_labels_20241116,,,[],ziga,2024-12-12T10:09:26Z,d54f3df85af38309a650d436dbc53fefd19169b0
0:E2D1DF206B372DB1F3B890E60D185B67AA0C9F1B6B6FF60A05091C8C01B40AC4,EQDi0d8gazctsfO4kOYNGFtnqgyfG2tv9goFCRyMAbQKxMA3,UQDi0d8gazctsfO4kOYNGFtnqgyfG2tv9goFCRyMAbQKxJ3y,bitget,CEX,,bitget,,datalake-test.cex_labels_20241116,,,[],ziga,2024-12-12T10:09:26Z,d54f3df85af38309a650d436dbc53fefd19169b0
0:B308C7F9B4F596F6250175885972549871B05C70ED3619FD5A939401EEA972E4,EQCzCMf5tPWW9iUBdYhZclSYcbBccO02Gf1ak5QB7qly5Gsl,UQCzCMf5tPWW9iUBdYhZclSYcbBccO02Gf1ak5QB7qly5Dbg,bitget,CEX,,bitget,,datalake-test.cex_labels_20241116,,,[],ziga,2024-12-12T10:09:26Z,d54f3df85af38309a650d436dbc53fefd19169b0
0:E9C0A24FFAA6AA4F228890E71AE9550BFC53A6C57E643BC31C240E18727AC1CE,EQDpwKJP-qaqTyKIkOca6VUL_FOmxX5kO8McJA4YcnrBzlwi,UQDpwKJP-qaqTyKIkOca6VUL_FOmxX5kO8McJA4YcnrBzgHn,bitget,CEX,,bitget,,datalake-test.cex_labels_20241116,,,[],ziga,2024-12-12T10:09:26Z,d54f3df85af38309a650d436dbc53fefd19169b0
0:573DFE99490A041703E977E4724135C5B8BEA0BEA67839612247451CA9D5C4CB,EQBXPf6ZSQoEFwPpd-RyQTXFuL6gvqZ4OWEiR0UcqdXEywxy,UQBXPf6ZSQoEFwPpd-RyQTXFuL6gvqZ4OWEiR0UcqdXEy1G3,bitget,CEX,,bitget,,datalake-test.cex_labels_20241116,,,[],ziga,2024-12-12T10:09:26Z,d54f3df85af38309a650d436dbc53fefd19169b0
0:7A0DC94DA9F48B968DFB87BE38D4FAB7286288DB7A04D3081FEEE177376D9089,EQB6DclNqfSLlo37h7441Pq3KGKI23oE0wgf7uF3N22QicZ7,UQB6DclNqfSLlo37h7441Pq3KGKI23oE0wgf7uF3N22QiZu-,bitget,CEX,,bitget,,datalake-test.cex_labels_20241116,,,[],ziga,2024-12-12T10:09:26Z,d54f3df85af38309a650d436dbc53fefd19169b0
0:C07E51E5B694937758F45F4003071C84F4C4A68BDB168A22C3D6C8B89CD6186F,EQDAflHltpSTd1j0X0ADBxyE9MSmi9sWiiLD1si4nNYYb7Kq,UQDAflHltpSTd1j0X0ADBxyE9MSmi9sWiiLD1si4nNYYb-9v,bitget,CEX,,bitget,,datalake-test.cex_labels_20241116,,,[],ziga,2024-12-12T10:09:26Z,d54f3df85af38309a650d436dbc53fefd19169b0
0:8785EF5EBB0FD24C6911D10F43C00961E9748FA54297A1AC517E3C5FE76BB0BE,EQCHhe9euw_STGkR0Q9DwAlh6XSPpUKXoaxRfjxf52uwvmGB,UQCHhe9euw_STGkR0Q9DwAlh6XSPpUKXoaxRfjxf52uwvjxE,bitget,CEX,,bitget,,datalake-test.cex_labels_20241116,,,[],ziga,2024-12-12T10:09:26Z,d54f3df85af38309a650d436dbc53fefd19169b0
0:DE2519A527DE7E1D4C1028BDB74E022B28A6E370E4FEC3FC27D8D971308F99BB,EQDeJRmlJ95-HUwQKL23TgIrKKbjcOT-w_wn2NlxMI-Zu6i2,UQDeJRmlJ95-HUwQKL23TgIrKKbjcOT-w_wn2NlxMI-Zu_Vz,bitget,CEX,,bitget,,datalake-test.cex_labels_20241116,,,[],ziga,2024-12-12T10:09:26Z,d54f3df85af38309a650d436dbc53fefd19169b0
0:06476E580E250D0ABEC5C365A711833483C581D57B908BE37D56BDB0E338C312,EQAGR25YDiUNCr7Fw2WnEYM0g8WB1XuQi-N9Vr2w4zjDEhg5,UQAGR25YDiUNCr7Fw2WnEYM0g8WB1XuQi-N9Vr2w4zjDEkX8,bitget,CEX,,bitget,,datalake-test.cex_labels_20241116,,,[],ziga,2024-12-12T10:09:26Z,d54f3df85af38309a650d436dbc53fefd19169b0
0:213B6804C2082135A4A803DA8E3B30CFED51AEE9AF2AD2100334B7F4711D3BCC,EQAhO2gEwgghNaSoA9qOOzDP7VGu6a8q0hADNLf0cR07zMQr,UQAhO2gEwgghNaSoA9qOOzDP7VGu6a8q0hADNLf0cR07zJnu,bitget,CEX,,bitget,,datalake-test.cex_labels_20241116,,,[],ziga,2024-12-12T10:09:26Z,d54f3df85af38309a650d436dbc53fefd19169b0
0:097DC94A6F87C58B4B5683E3D5830C1D5F11D12262D66CEF7FEC765CA489425A,EQAJfclKb4fFi0tWg-PVgwwdXxHRImLWbO9_7HZcpIlCWkTg,UQAJfclKb4fFi0tWg-PVgwwdXxHRImLWbO9_7HZcpIlCWhkl,bitgo,CEX,,bitgo,,datalake-test.cex_labels_20241116,,,[],ziga,2024-12-12T10:09:26Z,d54f3df85af38309a650d436dbc53fefd19169b0
0:59B065C5D66261A5317660E96EEE476AA6A11B749BDCBE8C0D1F3DBF24200D1C,EQBZsGXF1mJhpTF2YOlu7kdqpqEbdJvcvowNHz2_JCANHHf-,UQBZsGXF1mJhpTF2YOlu7kdqpqEbdJvcvowNHz2_JCANHCo7,ompfinex,CEX,,ompfinex,,datalake-test.cex_labels_20241116,,,[],ziga,2024-12-12T10:09:26Z,d54f3df85af38309a650d436dbc53fefd19169b0
0:F3F4ED0913AB555D023745058F1A6C55A49D4876593CB9BDAB1F780A99B185BC,EQDz9O0JE6tVXQI3RQWPGmxVpJ1Idlk8ub2rH3gKmbGFvCuG,UQDz9O0JE6tVXQI3RQWPGmxVpJ1Idlk8ub2rH3gKmbGFvHZD,paribu,CEX,,paribu,,datalake-test.cex_labels_20241116,,,[],ziga,2024-12-12T10:09:26Z,d54f3df85af38309a650d436dbc53fefd19169b0
